{"type":"FeatureCollection","crs":{"type":"name","properties":{"name":"urn:ogc:def:crs:OGC:1.3:CRS84"}},"features":[{"type":"Feature","geometry":{"type":"Polygon","coordinates":[[[-2.26743,53.38008],[-2.26647,53.37936],[-2.26165,53.37738],[-2.25824,53.37638],[-2.25504,53.3759],[-2.25374,53.37552],[-2.24889,53.37308],[-2.24714,53.37245],[-2.24481,53.37194],[-2.24122,53.37152],[-2.23712,53.3702],[-2.23707,53.36994],[-2.23766,53.36868],[-2.2378,53.36749],[-2.24078,53.35956],[-2.24414,53.35976],[-2.24421,53.36103],[-2.24519,53.36112],[-2.24666,53.36112],[-2.24665,53.36099],[-2.24959,53.36058],[-2.2541,53.36084],[-2.25645,53.36066],[-2.25893,53.35945],[-2.25886,53.35851],[-2.25864,53.35818],[-2.25845,53.35734],[-2.25804,53.35704],[-2.2611,53.35612],[-2.26141,53.35597],[-2.26131,53.35577],[-2.26239,53.35532],[-2.26462,53.35396],[-2.26393,53.35367],[-2.26421,53.35295],[-2.26622,53.35177],[-2.26684,53.3517],[-2.26707,53.35057],[-2.27181,53.35068],[-2.27335,53.35036],[-2.27837,53.3486],[-2.28043,53.34598],[-2.28462,53.34649],[-2.2867,53.3455],[-2.28587,53.345],[-2.28628,53.34471],[-2.28689,53.34374],[-2.28776,53.34335],[-2.28793,53.34307],[-2.28991,53.34229],[-2.29023,53.34232],[-2.29066,53.3428],[-2.29128,53.343],[-2.29406,53.34304],[-2.29446,53.34279],[-2.29565,53.34305],[-2.29586,53.34301],[-2.29674,53.34204],[-2.29715,53.34209],[-2.29728,53.34194],[-2.29785,53.34189],[-2.30134,53.34011],[-2.30284,53.34098],[-2.29902,53.34282],[-2.29874,53.34319],[-2.29746,53.3438],[-2.29815,53.34443],[-2.29766,53.3444],[-2.29646,53.34493],[-2.29644,53.34563],[-2.29671,53.34603],[-2.29832,53.34672],[-2.29816,53.34709],[-2.29737,53.34769],[-2.2969,53.34834],[-2.29693,53.34857],[-2.29775,53.34904],[-2.29887,53.349],[-2.29864,53.34972],[-2.29907,53.35001],[-2.30005,53.34983],[-2.30107,53.34903],[-2.30145,53.34904],[-2.30165,53.34921],[-2.30136,53.35019],[-2.30144,53.3504],[-2.30201,53.35064],[-2.30308,53.35053],[-2.30358,53.35071],[-2.30434,53.35147],[-2.30453,53.35224],[-2.30535,53.35266],[-2.30562,53.35313],[-2.30791,53.35352],[-2.30871,53.35417],[-2.30923,53.35435],[-2.31222,53.35476],[-2.3126,53.3552],[-2.31275,53.35608],[-2.3143,53.35672],[-2.31433,53.35692],[-2.314,53.35742],[-2.31374,53.35742],[-2.31364,53.35758],[-2.31196,53.35758],[-2.30596,53.35838],[-2.30218,53.35936],[-2.30003,53.36021],[-2.2996,53.36023],[-2.29845,53.36087],[-2.2976,53.3615],[-2.29636,53.36306],[-2.29618,53.36371],[-2.29487,53.36595],[-2.29499,53.366],[-2.29474,53.36661],[-2.29289,53.36968],[-2.29271,53.37022],[-2.29209,53.37074],[-2.29083,53.37237],[-2.29012,53.37272],[-2.28828,53.37431],[-2.2864,53.37565],[-2.28649,53.37575],[-2.28601,53.37569],[-2.28122,53.37861],[-2.27954,53.37998],[-2.27841,53.38119],[-2.27757,53.38109],[-2.27637,53.38136],[-2.27197,53.38027],[-2.26743,53.38008]]]},"properties":{"year":null,"ward_code":"00BNGK","ward_name":"Woodhouse Park","total_population":10931.0,"pct_male":null,"pct_female":null,"chinese_ethnic_count":71.0,"pct_chinese_ethnic":0.65,"china_born_count":124.0,"pct_china_born":1.13,"total_hh":4772.0,"pct_owner_occ":39.38,"pct_social_rent":48.03,"pct_private_rent":7.74,"pct_no_car":48.71,"pct_overcrowd":2.25,"pct_no_bath_wc":9.48,"emp_rate":59.09,"unemployment_rate":5.61,"self_employment_rate":3.12,"interp_coverage":0.92,"interp_uncertainty":"low","pct_china_born_note":"asia_born_proxy","china_born_count_note":"asia_born_proxy"}},{"type":"Feature","geometry":{"type":"Polygon","coordinates":[[[-2.25387,53.41209],[-2.25398,53.41051],[-2.25373,53.40947],[-2.25352,53.40921],[-2.25207,53.40843],[-2.24857,53.40749],[-2.2475,53.40684],[-2.24687,53.40669],[-2.24573,53.40685],[-2.2449,53.40747],[-2.24485,53.40784],[-2.245,53.40813],[-2.24632,53.40888],[-2.24666,53.40927],[-2.24669,53.40981],[-2.24639,53.41031],[-2.24549,53.41102],[-2.24431,53.41253],[-2.24346,53.41272],[-2.2426,53.41264],[-2.24018,53.41186],[-2.23946,53.41148],[-2.23882,53.4105],[-2.23821,53.40795],[-2.23835,53.40743],[-2.23913,53.40687],[-2.24113,53.40622],[-2.24412,53.4047],[-2.24467,53.40418],[-2.24479,53.40359],[-2.24462,53.40315],[-2.24393,53.40255],[-2.24285,53.40185],[-2.24113,53.40106],[-2.24,53.40071],[-2.23847,53.40078],[-2.2406,53.39977],[-2.24249,53.3995],[-2.24247,53.39902],[-2.2688,53.39806],[-2.26891,53.40026],[-2.26764,53.40363],[-2.2677,53.40602],[-2.26749,53.4068],[-2.28321,53.40774],[-2.283,53.40898],[-2.28261,53.40997],[-2.28744,53.41069],[-2.2893,53.41055],[-2.29164,53.40987],[-2.293,53.40908],[-2.29402,53.4082],[-2.29428,53.40763],[-2.29452,53.40755],[-2.2979,53.40669],[-2.29808,53.40722],[-2.29793,53.40822],[-2.29769,53.40835],[-2.29759,53.40985],[-2.29728,53.4109],[-2.29654,53.4118],[-2.29501,53.4127],[-2.29393,53.4136],[-2.29249,53.41374],[-2.2909,53.41418],[-2.28894,53.41535],[-2.2881,53.41542],[-2.28725,53.41495],[-2.28417,53.41617],[-2.28305,53.41601],[-2.28144,53.41528],[-2.2778,53.4155],[-2.27795,53.41558],[-2.27841,53.41732],[-2.27825,53.41823],[-2.27735,53.41876],[-2.27644,53.41897],[-2.27599,53.41931],[-2.27649,53.41951],[-2.27641,53.41963],[-2.27542,53.41941],[-2.27391,53.42159],[-2.27417,53.42166],[-2.27371,53.42257],[-2.27269,53.42167],[-2.27205,53.42139],[-2.26836,53.42132],[-2.26589,53.42061],[-2.2655,53.42024],[-2.26539,53.41991],[-2.26572,53.41865],[-2.26566,53.41795],[-2.26544,53.41752],[-2.26458,53.41664],[-2.2635,53.41613],[-2.26283,53.41602],[-2.25974,53.4163],[-2.25915,53.41682],[-2.25884,53.41778],[-2.25842,53.41801],[-2.25483,53.4182],[-2.25307,53.41874],[-2.2527,53.41919],[-2.25276,53.41981],[-2.25315,53.42038],[-2.25421,53.42094],[-2.25426,53.42135],[-2.25316,53.4224],[-2.25254,53.42245],[-2.25155,53.42212],[-2.25062,53.42139],[-2.2499,53.42048],[-2.24966,53.41993],[-2.24988,53.41928],[-2.25076,53.41828],[-2.25065,53.4173],[-2.25107,53.41623],[-2.25126,53.41513],[-2.25232,53.41365],[-2.25363,53.41254],[-2.25387,53.41209]]]},"properties":{"year":null,"ward_code":"00BNGD","ward_name":"Northenden","total_population":12678.0,"pct_male":null,"pct_female":null,"chinese_ethnic_count":81.0,"pct_chinese_ethnic":0.64,"china_born_count":229.0,"pct_china_born":1.81,"total_hh":5612.0,"pct_owner_occ":55.68,"pct_social_rent":32.16,"pct_private_rent":8.57,"pct_no_car":37.0,"pct_overcrowd":1.84,"pct_no_bath_wc":6.48,"emp_rate":61.98,"unemployment_rate":3.94,"self_employment_rate":5.27,"interp_coverage":0.99,"interp_uncertainty":"low","pct_china_born_note":"asia_born_proxy","china_born_count_note":"asia_born_proxy"}},{"type":"Feature","geometry":{"type":"Polygon","coordinates":[[[-2.21432,53.44073],[-2.21687,53.4408],[-2.22288,53.44141],[-2.23237,53.44125],[-2.24775,53.44076],[-2.24997,53.44053],[-2.25686,53.43913],[-2.25812,53.43902],[-2.25817,53.43946],[-2.25703,53.44323],[-2.25721,53.44867],[-2.24463,53.449],[-2.24477,53.45027],[-2.2387,53.45033],[-2.23852,53.45071],[-2.23718,53.44992],[-2.23534,53.4477],[-2.23065,53.44926],[-2.22379,53.45087],[-2.22208,53.45143],[-2.22064,53.44962],[-2.21994,53.44827],[-2.21822,53.44666],[-2.21794,53.44586],[-2.21807,53.44521],[-2.21504,53.44528],[-2.21466,53.44436],[-2.2142,53.44215],[-2.21432,53.44073]]]},"properties":{"year":null,"ward_code":"00BNFR","ward_name":"Fallowfield","total_population":14117.0,"pct_male":null,"pct_female":null,"chinese_ethnic_count":154.0,"pct_chinese_ethnic":1.09,"china_born_count":1132.0,"pct_china_born":8.02,"total_hh":4761.0,"pct_owner_occ":32.07,"pct_social_rent":28.67,"pct_private_rent":33.71,"pct_no_car":45.45,"pct_overcrowd":3.93,"pct_no_bath_wc":7.98,"emp_rate":46.35,"unemployment_rate":4.64,"self_employment_rate":3.92,"interp_coverage":1.0,"interp_uncertainty":"low","pct_china_born_note":"asia_born_proxy","china_born_count_note":"asia_born_proxy"}},{"type":"Feature","geometry":{"type":"Polygon","coordinates":[[[-2.2121,53.49675],[-2.21182,53.49651],[-2.21141,53.49557],[-2.20966,53.49493],[-2.20661,53.49222],[-2.20309,53.49058],[-2.20517,53.4894],[-2.21452,53.48548],[-2.22226,53.48182],[-2.22464,53.48083],[-2.22094,53.47852],[-2.21846,53.47792],[-2.21827,53.47773],[-2.21805,53.4763],[-2.21686,53.47533],[-2.21928,53.47542],[-2.21937,53.47518],[-2.2204,53.47462],[-2.22119,53.47389],[-2.22242,53.4735],[-2.22494,53.4735],[-2.22907,53.47396],[-2.23046,53.47387],[-2.23502,53.47205],[-2.23836,53.47157],[-2.24255,53.47039],[-2.24439,53.47023],[-2.25473,53.47106],[-2.2561,53.47133],[-2.25702,53.4717],[-2.25821,53.47266],[-2.25927,53.47298],[-2.26186,53.47558],[-2.26333,53.4757],[-2.26317,53.47622],[-2.26271,53.47674],[-2.2602,53.47777],[-2.25579,53.4806],[-2.25372,53.48154],[-2.24894,53.48319],[-2.24606,53.48478],[-2.24569,53.48502],[-2.24511,53.48631],[-2.24532,53.48678],[-2.24585,53.48702],[-2.24487,53.48749],[-2.23771,53.4897],[-2.22599,53.49227],[-2.22397,53.49468],[-2.22181,53.49645],[-2.21746,53.49452],[-2.2121,53.49675]]]},"properties":{"year":null,"ward_code":"00BNFK","ward_name":"Central","total_population":11715.0,"pct_male":null,"pct_female":null,"chinese_ethnic_count":710.0,"pct_chinese_ethnic":6.06,"china_born_count":994.0,"pct_china_born":8.48,"total_hh":6197.0,"pct_owner_occ":20.73,"pct_social_rent":39.15,"pct_private_rent":31.16,"pct_no_car":63.24,"pct_overcrowd":2.37,"pct_no_bath_wc":9.82,"emp_rate":48.68,"unemployment_rate":5.51,"self_employment_rate":4.1,"interp_coverage":1.0,"interp_uncertainty":"low","pct_china_born_note":"asia_born_proxy","china_born_count_note":"asia_born_proxy"}},{"type":"Feature","geometry":{"type":"Polygon","coordinates":[[[-2.16602,53.49158],[-2.16647,53.49126],[-2.16664,53.49084],[-2.16657,53.49041],[-2.16609,53.48973],[-2.16618,53.48893],[-2.16902,53.48852],[-2.16893,53.48828],[-2.16929,53.48814],[-2.16919,53.48786],[-2.16892,53.48789],[-2.16881,53.48764],[-2.16902,53.48761],[-2.16888,53.48719],[-2.16939,53.48712],[-2.16932,53.48681],[-2.16965,53.48677],[-2.16961,53.48608],[-2.16909,53.48614],[-2.16895,53.48577],[-2.16928,53.48573],[-2.16895,53.48449],[-2.16827,53.48314],[-2.16845,53.483],[-2.16806,53.48232],[-2.16808,53.48203],[-2.1677,53.48123],[-2.1675,53.48121],[-2.16756,53.48085],[-2.16743,53.48081],[-2.16771,53.48012],[-2.16803,53.48008],[-2.1665,53.47976],[-2.16633,53.47951],[-2.16599,53.47954],[-2.16559,53.47883],[-2.1656,53.47855],[-2.16816,53.47926],[-2.18395,53.48124],[-2.1888,53.48307],[-2.19575,53.48154],[-2.19676,53.4814],[-2.1978,53.48151],[-2.19671,53.47911],[-2.19742,53.47892],[-2.19805,53.47884],[-2.20414,53.47918],[-2.2088,53.47899],[-2.20975,53.4779],[-2.21037,53.47652],[-2.21032,53.4757],[-2.20973,53.47499],[-2.21181,53.47507],[-2.21686,53.47533],[-2.21805,53.4763],[-2.21827,53.47773],[-2.21846,53.47792],[-2.22094,53.47852],[-2.22464,53.48083],[-2.22226,53.48182],[-2.21452,53.48548],[-2.20517,53.4894],[-2.20309,53.49058],[-2.20119,53.48968],[-2.19969,53.48828],[-2.19953,53.48828],[-2.19842,53.4884],[-2.19709,53.48881],[-2.19594,53.48868],[-2.19487,53.48916],[-2.19424,53.48993],[-2.19402,53.49],[-2.1935,53.4899],[-2.19294,53.48907],[-2.19242,53.48901],[-2.19214,53.4892],[-2.1917,53.49019],[-2.19074,53.49059],[-2.19021,53.49043],[-2.18982,53.48955],[-2.18882,53.4893],[-2.18773,53.48974],[-2.18642,53.49066],[-2.18529,53.49096],[-2.18451,53.4907],[-2.18328,53.49093],[-2.18165,53.49088],[-2.18087,53.49133],[-2.17804,53.49217],[-2.17732,53.49209],[-2.17683,53.49173],[-2.17595,53.49145],[-2.17489,53.49147],[-2.17392,53.4913],[-2.16982,53.49127],[-2.16774,53.49188],[-2.16602,53.49158]]]},"properties":{"year":null,"ward_code":"00BNFE","ward_name":"Beswick and Clayton","total_population":9419.0,"pct_male":null,"pct_female":null,"chinese_ethnic_count":111.0,"pct_chinese_ethnic":1.18,"china_born_count":170.0,"pct_china_born":1.81,"total_hh":4242.0,"pct_owner_occ":28.38,"pct_social_rent":45.47,"pct_private_rent":13.57,"pct_no_car":60.17,"pct_overcrowd":1.92,"pct_no_bath_wc":9.63,"emp_rate":47.91,"unemployment_rate":5.95,"self_employment_rate":2.3,"interp_coverage":0.99,"interp_uncertainty":"low","pct_china_born_note":"asia_born_proxy","china_born_count_note":"asia_born_proxy"}},{"type":"Feature","geometry":{"type":"Polygon","coordinates":[[[-2.19392,53.53163],[-2.18881,53.53012],[-2.18587,53.52902],[-2.18399,53.52892],[-2.17549,53.52753],[-2.17585,53.52529],[-2.1763,53.52542],[-2.17756,53.52467],[-2.1796,53.52571],[-2.18193,53.52494],[-2.18162,53.5245],[-2.1818,53.52419],[-2.1811,53.52326],[-2.1823,53.52269],[-2.18252,53.52244],[-2.18439,53.52261],[-2.18449,53.52226],[-2.1836,53.52157],[-2.186,53.52043],[-2.18692,53.52021],[-2.18719,53.51995],[-2.18709,53.51987],[-2.1873,53.51934],[-2.19081,53.51983],[-2.19114,53.51938],[-2.19222,53.51884],[-2.19247,53.51882],[-2.19256,53.51917],[-2.1943,53.51919],[-2.19613,53.51898],[-2.19659,53.51879],[-2.19675,53.51822],[-2.19853,53.51742],[-2.20072,53.51751],[-2.20308,53.51814],[-2.20412,53.51814],[-2.20506,53.51852],[-2.20883,53.51898],[-2.21055,53.51981],[-2.21185,53.51996],[-2.21402,53.52051],[-2.21431,53.5205],[-2.2134,53.51932],[-2.21319,53.51845],[-2.21403,53.51963],[-2.21452,53.52001],[-2.21514,53.52015],[-2.21566,53.51855],[-2.21906,53.51895],[-2.21915,53.51881],[-2.21986,53.51903],[-2.22017,53.51861],[-2.22118,53.51812],[-2.22216,53.51864],[-2.22213,53.51935],[-2.22226,53.51961],[-2.22322,53.52029],[-2.22462,53.52073],[-2.22547,53.52121],[-2.22554,53.52169],[-2.22518,53.52227],[-2.22546,53.52251],[-2.22682,53.5223],[-2.227,53.52222],[-2.22712,53.52188],[-2.22749,53.52179],[-2.22919,53.52182],[-2.22961,53.52207],[-2.23066,53.52227],[-2.23066,53.524],[-2.23046,53.5243],[-2.23055,53.5246],[-2.23043,53.52483],[-2.227,53.52484],[-2.22719,53.52531],[-2.22685,53.52692],[-2.2264,53.52673],[-2.22271,53.52799],[-2.22254,53.52733],[-2.22215,53.52703],[-2.22155,53.52732],[-2.21501,53.52757],[-2.21463,53.52736],[-2.2144,53.52777],[-2.21444,53.52861],[-2.21418,53.52929],[-2.21452,53.52981],[-2.21434,53.53066],[-2.21323,53.53247],[-2.21238,53.53347],[-2.21122,53.53333],[-2.20816,53.53236],[-2.20675,53.53406],[-2.20543,53.5329],[-2.20439,53.53253],[-2.20084,53.53189],[-2.20082,53.53178],[-2.19694,53.53181],[-2.19392,53.53163]]]},"properties":{"year":null,"ward_code":"00BNFL","ward_name":"Charlestown","total_population":10840.0,"pct_male":null,"pct_female":null,"chinese_ethnic_count":58.0,"pct_chinese_ethnic":0.53,"china_born_count":140.0,"pct_china_born":1.29,"total_hh":5001.0,"pct_owner_occ":49.37,"pct_social_rent":38.81,"pct_private_rent":8.87,"pct_no_car":46.09,"pct_overcrowd":1.27,"pct_no_bath_wc":6.07,"emp_rate":55.49,"unemployment_rate":4.98,"self_employment_rate":3.9,"interp_coverage":1.0,"interp_uncertainty":"low","pct_china_born_note":"asia_born_proxy","china_born_count_note":"asia_born_proxy"}},{"type":"Feature","geometry":{"type":"Polygon","coordinates":[[[-2.2688,53.39806],[-2.26882,53.3964],[-2.26922,53.39542],[-2.26976,53.3946],[-2.273,53.39099],[-2.27392,53.38939],[-2.27521,53.38641],[-2.27777,53.38197],[-2.27954,53.37998],[-2.28108,53.37871],[-2.28601,53.37569],[-2.28632,53.37582],[-2.28564,53.37621],[-2.28722,53.37633],[-2.28862,53.37691],[-2.29253,53.38033],[-2.29278,53.38082],[-2.29383,53.38124],[-2.29432,53.3817],[-2.29652,53.38222],[-2.29689,53.38269],[-2.29775,53.38289],[-2.29817,53.38346],[-2.29854,53.3835],[-2.29919,53.38402],[-2.29994,53.38434],[-2.30023,53.385],[-2.2996,53.38541],[-2.29984,53.38557],[-2.29918,53.38614],[-2.29917,53.38636],[-2.29942,53.38661],[-2.29929,53.38683],[-2.29975,53.38704],[-2.29938,53.38755],[-2.29976,53.38779],[-2.29963,53.38799],[-2.29996,53.38814],[-2.29997,53.38831],[-2.29976,53.38845],[-2.2999,53.38871],[-2.30037,53.38892],[-2.30041,53.38903],[-2.30016,53.38905],[-2.30014,53.38937],[-2.30048,53.38954],[-2.29994,53.38981],[-2.30013,53.39041],[-2.30001,53.3908],[-2.3003,53.39111],[-2.29991,53.39193],[-2.30005,53.39215],[-2.30048,53.39232],[-2.30067,53.3927],[-2.30115,53.393],[-2.30148,53.3935],[-2.30172,53.39352],[-2.30184,53.39381],[-2.30252,53.39401],[-2.30294,53.39433],[-2.3046,53.39618],[-2.30462,53.39669],[-2.30498,53.397],[-2.30661,53.39715],[-2.30738,53.39741],[-2.3086,53.39894],[-2.282,53.39767],[-2.2688,53.39806]]]},"properties":{"year":null,"ward_code":"00BNFB","ward_name":"Baguley","total_population":11369.0,"pct_male":null,"pct_female":null,"chinese_ethnic_count":48.0,"pct_chinese_ethnic":0.42,"china_born_count":146.0,"pct_china_born":1.28,"total_hh":5014.0,"pct_owner_occ":47.86,"pct_social_rent":38.84,"pct_private_rent":8.14,"pct_no_car":41.84,"pct_overcrowd":1.64,"pct_no_bath_wc":7.18,"emp_rate":62.55,"unemployment_rate":4.63,"self_employment_rate":3.82,"interp_coverage":1.0,"interp_uncertainty":"low","pct_china_born_note":"asia_born_proxy","china_born_count_note":"asia_born_proxy"}},{"type":"Feature","geometry":{"type":"Polygon","coordinates":[[[-2.30426,53.4099],[-2.30362,53.40961],[-2.30149,53.40979],[-2.3003,53.40961],[-2.29952,53.40892],[-2.29786,53.40837],[-2.29808,53.40722],[-2.2979,53.40669],[-2.29428,53.40763],[-2.29402,53.4082],[-2.293,53.40908],[-2.29128,53.41001],[-2.2893,53.41055],[-2.28744,53.41069],[-2.28261,53.40997],[-2.283,53.40898],[-2.28321,53.40774],[-2.26749,53.4068],[-2.2677,53.40602],[-2.26764,53.40363],[-2.26891,53.40026],[-2.2688,53.39806],[-2.282,53.39767],[-2.3086,53.39894],[-2.3094,53.4001],[-2.31003,53.40052],[-2.3199,53.41164],[-2.31896,53.41151],[-2.31822,53.41117],[-2.31679,53.41112],[-2.31603,53.41094],[-2.3128,53.40986],[-2.30754,53.40992],[-2.30721,53.40979],[-2.30597,53.41009],[-2.30426,53.4099]]]},"properties":{"year":null,"ward_code":"00BNFH","ward_name":"Brooklands","total_population":10810.0,"pct_male":null,"pct_female":null,"chinese_ethnic_count":59.0,"pct_chinese_ethnic":0.55,"china_born_count":183.0,"pct_china_born":1.69,"total_hh":5049.0,"pct_owner_occ":48.18,"pct_social_rent":40.87,"pct_private_rent":6.8,"pct_no_car":41.32,"pct_overcrowd":1.54,"pct_no_bath_wc":5.38,"emp_rate":58.36,"unemployment_rate":4.18,"self_employment_rate":4.22,"interp_coverage":1.0,"interp_uncertainty":"low","pct_china_born_note":"asia_born_proxy","china_born_count_note":"asia_born_proxy"}},{"type":"Feature","geometry":{"type":"Polygon","coordinates":[[[-2.26743,53.38008],[-2.27197,53.38027],[-2.27637,53.38136],[-2.27757,53.38109],[-2.27841,53.38119],[-2.27777,53.38197],[-2.27591,53.38513],[-2.27489,53.38707],[-2.27392,53.38939],[-2.273,53.39099],[-2.26976,53.3946],[-2.26922,53.39542],[-2.26882,53.3964],[-2.2688,53.39806],[-2.26365,53.39825],[-2.2636,53.39784],[-2.25974,53.39687],[-2.25802,53.3966],[-2.25778,53.39627],[-2.25717,53.39605],[-2.25689,53.39353],[-2.25628,53.39202],[-2.25591,53.38651],[-2.25606,53.38233],[-2.25959,53.38211],[-2.26345,53.38108],[-2.2662,53.381],[-2.2668,53.38074],[-2.26743,53.38008]]]},"properties":{"year":null,"ward_code":"00BNFD","ward_name":"Benchill","total_population":10432.0,"pct_male":null,"pct_female":null,"chinese_ethnic_count":9.0,"pct_chinese_ethnic":0.09,"china_born_count":68.0,"pct_china_born":0.65,"total_hh":4370.0,"pct_owner_occ":19.94,"pct_social_rent":32.98,"pct_private_rent":7.4,"pct_no_car":55.59,"pct_overcrowd":3.33,"pct_no_bath_wc":4.51,"emp_rate":52.03,"unemployment_rate":7.38,"self_employment_rate":1.82,"interp_coverage":1.0,"interp_uncertainty":"low","pct_china_born_note":"asia_born_proxy","china_born_count_note":"asia_born_proxy"}},{"type":"Feature","geometry":{"type":"Polygon","coordinates":[[[-2.24114,53.37949],[-2.24129,53.37875],[-2.24206,53.37811],[-2.24202,53.37778],[-2.24181,53.37761],[-2.24179,53.37681],[-2.24144,53.37657],[-2.24132,53.37614],[-2.24166,53.37562],[-2.2414,53.37527],[-2.24132,53.37475],[-2.24026,53.37403],[-2.24004,53.37362],[-2.2399,53.37298],[-2.24044,53.37282],[-2.24037,53.37266],[-2.23898,53.37207],[-2.23865,53.37137],[-2.23868,53.37078],[-2.24122,53.37152],[-2.24481,53.37194],[-2.24714,53.37245],[-2.24889,53.37308],[-2.25397,53.3756],[-2.25582,53.37604],[-2.25824,53.37638],[-2.26165,53.37738],[-2.26708,53.37969],[-2.26743,53.38008],[-2.2668,53.38074],[-2.2662,53.381],[-2.26345,53.38108],[-2.25959,53.38211],[-2.25606,53.38233],[-2.25588,53.38481],[-2.25616,53.39066],[-2.25628,53.39202],[-2.25689,53.39353],[-2.25717,53.39605],[-2.25778,53.39627],[-2.25802,53.3966],[-2.25974,53.39687],[-2.2636,53.39784],[-2.26365,53.39825],[-2.24247,53.39902],[-2.24257,53.39775],[-2.24687,53.39609],[-2.24557,53.39525],[-2.24442,53.39412],[-2.24603,53.39378],[-2.24604,53.39137],[-2.24448,53.39132],[-2.24394,53.39039],[-2.24579,53.39022],[-2.24568,53.38989],[-2.24624,53.38783],[-2.2426,53.38767],[-2.24254,53.38594],[-2.24241,53.38569],[-2.24298,53.38485],[-2.24282,53.38425],[-2.24248,53.38406],[-2.24309,53.38307],[-2.24263,53.38251],[-2.2428,53.3822],[-2.24202,53.38204],[-2.24206,53.3817],[-2.24116,53.38117],[-2.2412,53.38093],[-2.24092,53.38052],[-2.2413,53.38012],[-2.24114,53.37949]]]},"properties":{"year":null,"ward_code":"00BNGG","ward_name":"Sharston","total_population":10100.0,"pct_male":null,"pct_female":null,"chinese_ethnic_count":31.0,"pct_chinese_ethnic":0.31,"china_born_count":126.0,"pct_china_born":1.25,"total_hh":4455.0,"pct_owner_occ":47.79,"pct_social_rent":20.76,"pct_private_rent":6.32,"pct_no_car":42.19,"pct_overcrowd":1.31,"pct_no_bath_wc":9.31,"emp_rate":62.36,"unemployment_rate":4.95,"self_employment_rate":3.93,"interp_coverage":0.99,"interp_uncertainty":"low","pct_china_born_note":"asia_born_proxy","china_born_count_note":"asia_born_proxy"}},{"type":"Feature","geometry":{"type":"Polygon","coordinates":[[[-2.23636,53.42547],[-2.24235,53.42077],[-2.2474,53.41553],[-2.24939,53.41419],[-2.25387,53.41209],[-2.25363,53.41254],[-2.25232,53.41365],[-2.25126,53.41513],[-2.25107,53.41623],[-2.25065,53.4173],[-2.25076,53.41828],[-2.24988,53.41928],[-2.24966,53.41993],[-2.2499,53.42048],[-2.25062,53.42139],[-2.25155,53.42212],[-2.25254,53.42245],[-2.25316,53.4224],[-2.25426,53.42135],[-2.25421,53.42094],[-2.25315,53.42038],[-2.25276,53.41981],[-2.2527,53.41919],[-2.25307,53.41874],[-2.25483,53.4182],[-2.25842,53.41801],[-2.25884,53.41778],[-2.25935,53.41652],[-2.25984,53.41626],[-2.26327,53.41607],[-2.26467,53.4167],[-2.26551,53.41762],[-2.26572,53.41865],[-2.26539,53.41991],[-2.2655,53.42024],[-2.26589,53.42061],[-2.26836,53.42132],[-2.27205,53.42139],[-2.27269,53.42167],[-2.27359,53.42251],[-2.27561,53.42329],[-2.28,53.42379],[-2.28318,53.42476],[-2.28388,53.42515],[-2.28435,53.42563],[-2.28555,53.42766],[-2.28593,53.42921],[-2.2783,53.43041],[-2.26722,53.43338],[-2.26575,53.4341],[-2.26319,53.4361],[-2.26126,53.43714],[-2.24313,53.43038],[-2.24029,53.42883],[-2.24011,53.42898],[-2.23812,53.42757],[-2.23744,53.42691],[-2.23636,53.42547]]]},"properties":{"year":null,"ward_code":"00BNFC","ward_name":"Barlow Moor","total_population":12865.0,"pct_male":null,"pct_female":null,"chinese_ethnic_count":112.0,"pct_chinese_ethnic":0.87,"china_born_count":627.0,"pct_china_born":4.87,"total_hh":5866.0,"pct_owner_occ":37.13,"pct_social_rent":29.36,"pct_private_rent":28.67,"pct_no_car":40.08,"pct_overcrowd":1.84,"pct_no_bath_wc":6.56,"emp_rate":63.08,"unemployment_rate":4.78,"self_employment_rate":5.49,"interp_coverage":1.0,"interp_uncertainty":"low","pct_china_born_note":"asia_born_proxy","china_born_count_note":"asia_born_proxy"}},{"type":"Feature","geometry":{"type":"Polygon","coordinates":[[[-2.26669,53.43922],[-2.26672,53.43912],[-2.26126,53.43714],[-2.26319,53.4361],[-2.26575,53.4341],[-2.2669,53.43349],[-2.2783,53.43041],[-2.28593,53.42921],[-2.28746,53.43101],[-2.28898,53.43196],[-2.29328,53.43266],[-2.29621,53.43253],[-2.29945,53.43328],[-2.29987,53.43351],[-2.30005,53.43382],[-2.29995,53.43517],[-2.3002,53.43633],[-2.2997,53.43731],[-2.29608,53.43599],[-2.29545,53.43587],[-2.29422,53.43605],[-2.29488,53.43729],[-2.2954,53.43878],[-2.29295,53.43887],[-2.2914,53.43925],[-2.28991,53.44132],[-2.29152,53.44319],[-2.29326,53.44361],[-2.29311,53.4444],[-2.2933,53.44453],[-2.29278,53.44442],[-2.29175,53.44538],[-2.29034,53.44506],[-2.29002,53.44531],[-2.28959,53.44514],[-2.28615,53.44917],[-2.28452,53.44897],[-2.28309,53.44899],[-2.28141,53.44928],[-2.27975,53.4492],[-2.27959,53.45011],[-2.27745,53.45045],[-2.27591,53.4459],[-2.27531,53.44481],[-2.27436,53.44363],[-2.27321,53.44259],[-2.27121,53.4412],[-2.26967,53.44041],[-2.26669,53.43922]]]},"properties":{"year":null,"ward_code":"00BNFN","ward_name":"Chorlton","total_population":14377.0,"pct_male":null,"pct_female":null,"chinese_ethnic_count":110.0,"pct_chinese_ethnic":0.76,"china_born_count":481.0,"pct_china_born":3.35,"total_hh":6560.0,"pct_owner_occ":60.9,"pct_social_rent":5.5,"pct_private_rent":26.23,"pct_no_car":30.98,"pct_overcrowd":1.41,"pct_no_bath_wc":12.32,"emp_rate":74.98,"unemployment_rate":3.16,"self_employment_rate":8.12,"interp_coverage":1.0,"interp_uncertainty":"low","pct_china_born_note":"asia_born_proxy","china_born_count_note":"asia_born_proxy"}},{"type":"Feature","geometry":{"type":"Polygon","coordinates":[[[-2.2191,53.44104],[-2.22082,53.43905],[-2.22163,53.43833],[-2.22453,53.43638],[-2.22725,53.43529],[-2.22879,53.43337],[-2.22891,53.43313],[-2.22861,53.4319],[-2.2287,53.4309],[-2.22787,53.42973],[-2.22782,53.42905],[-2.22933,53.42621],[-2.23018,53.42511],[-2.23193,53.42371],[-2.23234,53.42303],[-2.23245,53.42251],[-2.23414,53.42276],[-2.236,53.42499],[-2.23647,53.42536],[-2.23636,53.42547],[-2.23744,53.42691],[-2.23812,53.42757],[-2.24011,53.42898],[-2.24029,53.42883],[-2.24203,53.42985],[-2.24445,53.43088],[-2.26672,53.43912],[-2.26669,53.43922],[-2.2642,53.43871],[-2.2627,53.43866],[-2.25812,53.43902],[-2.25548,53.43932],[-2.24997,53.44053],[-2.2473,53.44079],[-2.22518,53.44144],[-2.22235,53.44138],[-2.2191,53.44104]]]},"properties":{"year":null,"ward_code":"00BNGE","ward_name":"Old Moat","total_population":15309.0,"pct_male":null,"pct_female":null,"chinese_ethnic_count":125.0,"pct_chinese_ethnic":0.82,"china_born_count":765.0,"pct_china_born":5.0,"total_hh":6214.0,"pct_owner_occ":37.23,"pct_social_rent":26.27,"pct_private_rent":31.76,"pct_no_car":40.14,"pct_overcrowd":1.85,"pct_no_bath_wc":6.95,"emp_rate":55.25,"unemployment_rate":4.05,"self_employment_rate":4.29,"interp_coverage":1.0,"interp_uncertainty":"low","pct_china_born_note":"asia_born_proxy","china_born_count_note":"asia_born_proxy"}},{"type":"Feature","geometry":{"type":"Polygon","coordinates":[[[-2.25202,53.4488],[-2.25721,53.44867],[-2.25703,53.44323],[-2.25809,53.43997],[-2.25812,53.43902],[-2.2627,53.43866],[-2.26401,53.4387],[-2.26669,53.43922],[-2.26967,53.44041],[-2.27136,53.44129],[-2.27351,53.44284],[-2.27475,53.44408],[-2.27578,53.44563],[-2.27641,53.44713],[-2.27745,53.45045],[-2.27165,53.45069],[-2.25818,53.45885],[-2.25846,53.45735],[-2.25837,53.45509],[-2.25744,53.45327],[-2.2525,53.45514],[-2.25202,53.4488]]]},"properties":{"year":null,"ward_code":"00BNGH","ward_name":"Whalley Range","total_population":12015.0,"pct_male":null,"pct_female":null,"chinese_ethnic_count":115.0,"pct_chinese_ethnic":0.96,"china_born_count":1688.0,"pct_china_born":14.05,"total_hh":5006.0,"pct_owner_occ":57.04,"pct_social_rent":6.21,"pct_private_rent":25.0,"pct_no_car":33.62,"pct_overcrowd":4.37,"pct_no_bath_wc":9.5,"emp_rate":62.19,"unemployment_rate":5.29,"self_employment_rate":8.23,"interp_coverage":1.0,"interp_uncertainty":"low","pct_china_born_note":"asia_born_proxy","china_born_count_note":"asia_born_proxy"}},{"type":"Feature","geometry":{"type":"Polygon","coordinates":[[[-2.22679,53.45783],[-2.22567,53.45628],[-2.22992,53.45615],[-2.23004,53.45154],[-2.22959,53.44953],[-2.23534,53.4477],[-2.23718,53.44992],[-2.23852,53.45071],[-2.2387,53.45033],[-2.24477,53.45027],[-2.24463,53.449],[-2.25202,53.4488],[-2.2525,53.45514],[-2.25744,53.45327],[-2.25837,53.45509],[-2.25846,53.45735],[-2.25818,53.45885],[-2.25549,53.45966],[-2.25066,53.46042],[-2.24364,53.4589],[-2.24091,53.45784],[-2.23817,53.45808],[-2.23059,53.45769],[-2.22679,53.45783]]]},"properties":{"year":null,"ward_code":"00BNGA","ward_name":"Moss Side","total_population":10942.0,"pct_male":null,"pct_female":null,"chinese_ethnic_count":168.0,"pct_chinese_ethnic":1.54,"china_born_count":821.0,"pct_china_born":7.5,"total_hh":4956.0,"pct_owner_occ":24.54,"pct_social_rent":28.2,"pct_private_rent":20.4,"pct_no_car":63.53,"pct_overcrowd":4.3,"pct_no_bath_wc":13.69,"emp_rate":47.59,"unemployment_rate":7.62,"self_employment_rate":3.19,"interp_coverage":1.0,"interp_uncertainty":"low","pct_china_born_note":"asia_born_proxy","china_born_count_note":"asia_born_proxy"}},{"type":"Feature","geometry":{"type":"Polygon","coordinates":[[[-2.23414,53.42276],[-2.23058,53.42239],[-2.22768,53.42116],[-2.22533,53.42087],[-2.22172,53.42154],[-2.21996,53.4217],[-2.21866,53.42163],[-2.21934,53.4198],[-2.21993,53.41716],[-2.22065,53.41584],[-2.21436,53.41466],[-2.21469,53.41296],[-2.21512,53.41178],[-2.21508,53.41149],[-2.21541,53.41137],[-2.21462,53.41105],[-2.21552,53.41088],[-2.21504,53.40975],[-2.21269,53.40697],[-2.21568,53.40597],[-2.21933,53.40514],[-2.2195,53.40495],[-2.21934,53.40406],[-2.21989,53.40274],[-2.22257,53.40118],[-2.22518,53.40132],[-2.22772,53.40088],[-2.22918,53.40085],[-2.2362,53.40107],[-2.23988,53.40071],[-2.24099,53.401],[-2.24307,53.40198],[-2.24455,53.40308],[-2.24479,53.40359],[-2.24467,53.40418],[-2.24412,53.4047],[-2.24113,53.40622],[-2.23913,53.40687],[-2.23835,53.40743],[-2.23821,53.40795],[-2.23882,53.4105],[-2.23913,53.41115],[-2.23954,53.41154],[-2.2426,53.41264],[-2.24346,53.41272],[-2.24431,53.41253],[-2.24549,53.41102],[-2.24666,53.40992],[-2.24672,53.40954],[-2.24653,53.40909],[-2.245,53.40813],[-2.24485,53.40784],[-2.2449,53.40747],[-2.2452,53.40715],[-2.24618,53.40671],[-2.2473,53.40677],[-2.24857,53.40749],[-2.25207,53.40843],[-2.25336,53.40909],[-2.25372,53.40943],[-2.25398,53.41051],[-2.25387,53.41209],[-2.24939,53.41419],[-2.2474,53.41553],[-2.24235,53.42077],[-2.23647,53.42536],[-2.236,53.42499],[-2.23414,53.42276]]]},"properties":{"year":null,"ward_code":"00BNFQ","ward_name":"Didsbury","total_population":14383.0,"pct_male":null,"pct_female":null,"chinese_ethnic_count":100.0,"pct_chinese_ethnic":0.7,"china_born_count":707.0,"pct_china_born":4.92,"total_hh":6214.0,"pct_owner_occ":71.86,"pct_social_rent":4.77,"pct_private_rent":19.6,"pct_no_car":21.52,"pct_overcrowd":1.37,"pct_no_bath_wc":7.17,"emp_rate":71.63,"unemployment_rate":2.17,"self_employment_rate":9.56,"interp_coverage":0.99,"interp_uncertainty":"low","pct_china_born_note":"asia_born_proxy","china_born_count_note":"asia_born_proxy"}},{"type":"Feature","geometry":{"type":"Polygon","coordinates":[[[-2.19135,53.43511],[-2.19308,53.42944],[-2.19318,53.42765],[-2.19456,53.4277],[-2.19685,53.42808],[-2.19958,53.42674],[-2.19995,53.4258],[-2.20101,53.4244],[-2.20126,53.42436],[-2.20216,53.42344],[-2.20453,53.42214],[-2.20496,53.42234],[-2.20535,53.42211],[-2.20525,53.42204],[-2.20563,53.42173],[-2.20562,53.42156],[-2.20681,53.42095],[-2.20668,53.42074],[-2.2072,53.42043],[-2.20756,53.42043],[-2.20776,53.42009],[-2.20628,53.42009],[-2.20616,53.41966],[-2.20651,53.41901],[-2.20718,53.41886],[-2.20844,53.41916],[-2.20883,53.41876],[-2.2091,53.41871],[-2.20971,53.41794],[-2.21349,53.41892],[-2.21436,53.41466],[-2.22065,53.41584],[-2.21993,53.41716],[-2.21905,53.42069],[-2.21565,53.43041],[-2.21118,53.42956],[-2.20753,53.43635],[-2.20624,53.43658],[-2.20317,53.43614],[-2.20058,53.43607],[-2.19964,53.43619],[-2.19607,53.43586],[-2.19135,53.43511]]]},"properties":{"year":null,"ward_code":"00BNFJ","ward_name":"Burnage","total_population":13721.0,"pct_male":null,"pct_female":null,"chinese_ethnic_count":103.0,"pct_chinese_ethnic":0.75,"china_born_count":804.0,"pct_china_born":5.86,"total_hh":5510.0,"pct_owner_occ":43.91,"pct_social_rent":41.59,"pct_private_rent":9.86,"pct_no_car":40.78,"pct_overcrowd":3.29,"pct_no_bath_wc":8.93,"emp_rate":58.09,"unemployment_rate":4.83,"self_employment_rate":5.58,"interp_coverage":0.99,"interp_uncertainty":"low","pct_china_born_note":"asia_born_proxy","china_born_count_note":"asia_born_proxy"}},{"type":"Feature","geometry":{"type":"Polygon","coordinates":[[[-2.21432,53.44073],[-2.20519,53.44062],[-2.21118,53.42956],[-2.21565,53.43041],[-2.21866,53.42163],[-2.21996,53.4217],[-2.22172,53.42154],[-2.22533,53.42087],[-2.22768,53.42116],[-2.23058,53.42239],[-2.23245,53.42251],[-2.23203,53.42358],[-2.23002,53.4253],[-2.22903,53.42666],[-2.22811,53.42834],[-2.22782,53.42905],[-2.22781,53.42955],[-2.22868,53.43082],[-2.22861,53.4319],[-2.22891,53.43313],[-2.22725,53.43529],[-2.22453,53.43638],[-2.22163,53.43833],[-2.22082,53.43905],[-2.2191,53.44104],[-2.21432,53.44073]]]},"properties":{"year":null,"ward_code":"00BNGJ","ward_name":"Withington","total_population":14115.0,"pct_male":null,"pct_female":null,"chinese_ethnic_count":176.0,"pct_chinese_ethnic":1.25,"china_born_count":799.0,"pct_china_born":5.66,"total_hh":5646.0,"pct_owner_occ":45.17,"pct_social_rent":14.02,"pct_private_rent":34.53,"pct_no_car":38.21,"pct_overcrowd":1.79,"pct_no_bath_wc":8.43,"emp_rate":55.72,"unemployment_rate":3.09,"self_employment_rate":5.4,"interp_coverage":1.0,"interp_uncertainty":"low","pct_china_born_note":"asia_born_proxy","china_born_count_note":"asia_born_proxy"}},{"type":"Feature","geometry":{"type":"Polygon","coordinates":[[[-2.22014,53.4592],[-2.21835,53.45775],[-2.21694,53.45685],[-2.21146,53.45384],[-2.20497,53.4553],[-2.20043,53.448],[-2.19737,53.44827],[-2.19817,53.44535],[-2.20287,53.44303],[-2.20386,53.44209],[-2.20454,53.44063],[-2.21432,53.44073],[-2.2142,53.44215],[-2.21466,53.44436],[-2.21504,53.44528],[-2.21807,53.44521],[-2.21794,53.44586],[-2.21822,53.44666],[-2.21994,53.44827],[-2.22064,53.44962],[-2.22208,53.45143],[-2.22379,53.45087],[-2.22959,53.44953],[-2.23004,53.45154],[-2.22992,53.45615],[-2.22567,53.45628],[-2.22767,53.45923],[-2.22223,53.45905],[-2.22014,53.4592]]]},"properties":{"year":null,"ward_code":"00BNGF","ward_name":"Rusholme","total_population":14355.0,"pct_male":null,"pct_female":null,"chinese_ethnic_count":403.0,"pct_chinese_ethnic":2.81,"china_born_count":2219.0,"pct_china_born":15.46,"total_hh":4386.0,"pct_owner_occ":31.96,"pct_social_rent":23.82,"pct_private_rent":37.78,"pct_no_car":48.89,"pct_overcrowd":5.15,"pct_no_bath_wc":7.85,"emp_rate":41.25,"unemployment_rate":3.8,"self_employment_rate":3.07,"interp_coverage":1.0,"interp_uncertainty":"low","pct_china_born_note":"asia_born_proxy","china_born_count_note":"asia_born_proxy"}},{"type":"Feature","geometry":{"type":"Polygon","coordinates":[[[-2.17399,53.44366],[-2.17426,53.44204],[-2.17414,53.44054],[-2.17472,53.43823],[-2.17497,53.43554],[-2.17533,53.43444],[-2.17563,53.43418],[-2.17596,53.4343],[-2.1762,53.43356],[-2.17679,53.43304],[-2.1772,53.43309],[-2.17836,53.43386],[-2.17909,53.43398],[-2.17904,53.43424],[-2.17926,53.43415],[-2.18014,53.43437],[-2.17988,53.43454],[-2.18018,53.43471],[-2.18108,53.43468],[-2.18137,53.43497],[-2.1818,53.43511],[-2.18292,53.43502],[-2.18325,53.43526],[-2.1838,53.43519],[-2.1842,53.43556],[-2.18524,53.43568],[-2.18573,53.4361],[-2.18658,53.43599],[-2.18677,53.43619],[-2.18752,53.43634],[-2.18733,53.43649],[-2.18746,53.43663],[-2.18844,53.43663],[-2.18873,53.43681],[-2.18722,53.43523],[-2.18908,53.43484],[-2.19607,53.43586],[-2.19964,53.43619],[-2.20058,53.43607],[-2.20317,53.43614],[-2.20624,53.43658],[-2.20753,53.43635],[-2.20519,53.44062],[-2.20454,53.44063],[-2.20355,53.44246],[-2.20222,53.44341],[-2.19817,53.44535],[-2.19737,53.44827],[-2.19484,53.44855],[-2.19372,53.44843],[-2.19205,53.44859],[-2.19145,53.44732],[-2.19144,53.446],[-2.18555,53.44744],[-2.18181,53.44797],[-2.1794,53.44806],[-2.17984,53.44712],[-2.17988,53.44604],[-2.18116,53.44559],[-2.18257,53.4432],[-2.1776,53.44328],[-2.17746,53.44298],[-2.17712,53.44298],[-2.17695,53.44254],[-2.17399,53.44366]]]},"properties":{"year":null,"ward_code":"00BNFX","ward_name":"Levenshulme","total_population":12662.0,"pct_male":null,"pct_female":null,"chinese_ethnic_count":115.0,"pct_chinese_ethnic":0.91,"china_born_count":1188.0,"pct_china_born":9.38,"total_hh":5254.0,"pct_owner_occ":60.91,"pct_social_rent":5.16,"pct_private_rent":24.74,"pct_no_car":40.63,"pct_overcrowd":2.53,"pct_no_bath_wc":15.5,"emp_rate":62.16,"unemployment_rate":5.22,"self_employment_rate":6.31,"interp_coverage":0.97,"interp_uncertainty":"low","pct_china_born_note":"asia_born_proxy","china_born_count_note":"asia_born_proxy"}},{"type":"Feature","geometry":{"type":"Polygon","coordinates":[[[-2.23836,53.47157],[-2.2334,53.46579],[-2.22944,53.46221],[-2.22814,53.46038],[-2.22767,53.45923],[-2.22679,53.45783],[-2.23059,53.45769],[-2.23817,53.45808],[-2.24091,53.45784],[-2.24364,53.4589],[-2.25066,53.46042],[-2.2536,53.45993],[-2.25383,53.46014],[-2.25386,53.46046],[-2.25322,53.46064],[-2.25345,53.46119],[-2.25304,53.46128],[-2.25323,53.46202],[-2.25364,53.46259],[-2.25383,53.46269],[-2.25436,53.46243],[-2.2559,53.46216],[-2.25771,53.46256],[-2.25809,53.46276],[-2.25809,53.46302],[-2.25846,53.46303],[-2.25845,53.46371],[-2.25903,53.46413],[-2.2601,53.46583],[-2.26071,53.46592],[-2.26272,53.46741],[-2.26298,53.4674],[-2.26355,53.46779],[-2.26399,53.46761],[-2.26453,53.46781],[-2.26513,53.46843],[-2.26451,53.46868],[-2.26575,53.46972],[-2.26655,53.46961],[-2.26793,53.46984],[-2.26681,53.47071],[-2.26512,53.47246],[-2.26535,53.4727],[-2.26496,53.47283],[-2.26403,53.47361],[-2.26333,53.4757],[-2.26186,53.47558],[-2.25927,53.47298],[-2.25821,53.47266],[-2.25687,53.47162],[-2.25519,53.47111],[-2.24409,53.47024],[-2.24209,53.47048],[-2.23836,53.47157]]]},"properties":{"year":null,"ward_code":"00BNFW","ward_name":"Hulme","total_population":10405.0,"pct_male":null,"pct_female":null,"chinese_ethnic_count":372.0,"pct_chinese_ethnic":3.58,"china_born_count":726.0,"pct_china_born":6.98,"total_hh":4127.0,"pct_owner_occ":18.01,"pct_social_rent":43.19,"pct_private_rent":18.39,"pct_no_car":59.16,"pct_overcrowd":4.35,"pct_no_bath_wc":4.43,"emp_rate":48.07,"unemployment_rate":5.76,"self_employment_rate":2.7,"interp_coverage":0.99,"interp_uncertainty":"low","pct_china_born_note":"asia_born_proxy","china_born_count_note":"asia_born_proxy"}},{"type":"Feature","geometry":{"type":"Polygon","coordinates":[[[-2.20779,53.46738],[-2.18247,53.46279],[-2.18265,53.46241],[-2.18228,53.4622],[-2.18239,53.46207],[-2.1812,53.46022],[-2.18115,53.45931],[-2.1842,53.45934],[-2.18498,53.45917],[-2.18497,53.45839],[-2.18847,53.45763],[-2.19051,53.45736],[-2.19011,53.45579],[-2.18938,53.45465],[-2.19552,53.45322],[-2.19257,53.44978],[-2.19205,53.44859],[-2.19372,53.44843],[-2.19484,53.44855],[-2.20043,53.448],[-2.20497,53.4553],[-2.21146,53.45384],[-2.21694,53.45685],[-2.21835,53.45775],[-2.22014,53.4592],[-2.2144,53.46007],[-2.21302,53.4598],[-2.21168,53.45979],[-2.20919,53.4602],[-2.20727,53.45974],[-2.20442,53.45979],[-2.20795,53.46159],[-2.21355,53.46474],[-2.21139,53.466],[-2.20782,53.46617],[-2.20666,53.46652],[-2.20779,53.46738]]]},"properties":{"year":null,"ward_code":"00BNFZ","ward_name":"Longsight","total_population":16005.0,"pct_male":null,"pct_female":null,"chinese_ethnic_count":253.0,"pct_chinese_ethnic":1.58,"china_born_count":3120.0,"pct_china_born":19.49,"total_hh":5816.0,"pct_owner_occ":33.2,"pct_social_rent":22.02,"pct_private_rent":29.89,"pct_no_car":54.21,"pct_overcrowd":8.1,"pct_no_bath_wc":12.8,"emp_rate":46.64,"unemployment_rate":6.39,"self_employment_rate":4.04,"interp_coverage":1.0,"interp_uncertainty":"low","pct_china_born_note":"asia_born_proxy","china_born_count_note":"asia_born_proxy"}},{"type":"Feature","geometry":{"type":"Polygon","coordinates":[[[-2.21928,53.47542],[-2.20973,53.47499],[-2.20866,53.47447],[-2.19945,53.47177],[-2.19411,53.47178],[-2.19431,53.47078],[-2.19383,53.47033],[-2.19319,53.46913],[-2.18979,53.46534],[-2.18793,53.4638],[-2.20779,53.46738],[-2.20666,53.46652],[-2.20782,53.46617],[-2.21139,53.466],[-2.21355,53.46474],[-2.20795,53.46159],[-2.20442,53.45979],[-2.20727,53.45974],[-2.20919,53.4602],[-2.21168,53.45979],[-2.21302,53.4598],[-2.2144,53.46007],[-2.2212,53.45908],[-2.22767,53.45923],[-2.22814,53.46038],[-2.22944,53.46221],[-2.2334,53.46579],[-2.23836,53.47157],[-2.23465,53.47216],[-2.23046,53.47387],[-2.22907,53.47396],[-2.22494,53.4735],[-2.22242,53.4735],[-2.22119,53.47389],[-2.2204,53.47462],[-2.21937,53.47518],[-2.21928,53.47542]]]},"properties":{"year":null,"ward_code":"00BNFA","ward_name":"Ardwick","total_population":9887.0,"pct_male":null,"pct_female":null,"chinese_ethnic_count":577.0,"pct_chinese_ethnic":5.84,"china_born_count":1222.0,"pct_china_born":12.36,"total_hh":4258.0,"pct_owner_occ":11.27,"pct_social_rent":56.65,"pct_private_rent":18.1,"pct_no_car":64.52,"pct_overcrowd":3.99,"pct_no_bath_wc":5.59,"emp_rate":43.45,"unemployment_rate":7.32,"self_employment_rate":2.17,"interp_coverage":1.0,"interp_uncertainty":"low","pct_china_born_note":"asia_born_proxy","china_born_count_note":"asia_born_proxy"}},{"type":"Feature","geometry":{"type":"Polygon","coordinates":[[[-2.16619,53.45286],[-2.1675,53.44937],[-2.17013,53.44884],[-2.17262,53.44808],[-2.1728,53.44794],[-2.17201,53.44723],[-2.1731,53.44563],[-2.17338,53.44565],[-2.17402,53.44395],[-2.17399,53.44366],[-2.17695,53.44254],[-2.17712,53.44298],[-2.17746,53.44298],[-2.1776,53.44328],[-2.18257,53.4432],[-2.18116,53.44559],[-2.17988,53.44604],[-2.17984,53.44712],[-2.1794,53.44806],[-2.18181,53.44797],[-2.18555,53.44744],[-2.19144,53.446],[-2.19145,53.44732],[-2.19247,53.4496],[-2.19552,53.45322],[-2.18938,53.45465],[-2.19011,53.45579],[-2.19051,53.45736],[-2.18847,53.45763],[-2.18497,53.45839],[-2.18498,53.45917],[-2.1842,53.45934],[-2.18115,53.45931],[-2.1812,53.46022],[-2.18239,53.46207],[-2.18228,53.4622],[-2.18265,53.46241],[-2.18247,53.46279],[-2.16693,53.45982],[-2.1641,53.45943],[-2.16639,53.45282],[-2.16619,53.45286]]]},"properties":{"year":null,"ward_code":"00BNFT","ward_name":"Gorton South","total_population":11458.0,"pct_male":null,"pct_female":null,"chinese_ethnic_count":70.0,"pct_chinese_ethnic":0.61,"china_born_count":509.0,"pct_china_born":4.44,"total_hh":5203.0,"pct_owner_occ":37.2,"pct_social_rent":28.2,"pct_private_rent":19.52,"pct_no_car":56.71,"pct_overcrowd":3.7,"pct_no_bath_wc":14.25,"emp_rate":55.32,"unemployment_rate":7.2,"self_employment_rate":4.22,"interp_coverage":0.95,"interp_uncertainty":"low","pct_china_born_note":"asia_born_proxy","china_born_count_note":"asia_born_proxy"}},{"type":"Feature","geometry":{"type":"Polygon","coordinates":[[[-2.1499,53.4709],[-2.14942,53.47017],[-2.14785,53.46903],[-2.14761,53.46867],[-2.14755,53.46824],[-2.14685,53.46769],[-2.14686,53.46748],[-2.14705,53.46711],[-2.14793,53.46661],[-2.14769,53.46641],[-2.14785,53.46577],[-2.14826,53.46571],[-2.14915,53.46514],[-2.1495,53.46438],[-2.14971,53.46432],[-2.14976,53.46387],[-2.14997,53.46369],[-2.15278,53.46323],[-2.15275,53.46293],[-2.15232,53.46245],[-2.15198,53.46252],[-2.15189,53.46212],[-2.1512,53.46186],[-2.15017,53.46077],[-2.14898,53.46058],[-2.14932,53.46026],[-2.15074,53.46016],[-2.15013,53.45967],[-2.14924,53.45943],[-2.14931,53.45912],[-2.15049,53.45784],[-2.15082,53.45796],[-2.15132,53.45772],[-2.15207,53.45773],[-2.1537,53.45682],[-2.15823,53.455],[-2.15852,53.45483],[-2.15845,53.45472],[-2.16044,53.45425],[-2.16011,53.45384],[-2.16,53.45336],[-2.16178,53.45308],[-2.16142,53.45183],[-2.16596,53.45375],[-2.16619,53.45286],[-2.16639,53.45282],[-2.1641,53.45943],[-2.16693,53.45982],[-2.18793,53.4638],[-2.18979,53.46534],[-2.19143,53.46705],[-2.19331,53.46929],[-2.19383,53.47033],[-2.19432,53.47088],[-2.19411,53.47178],[-2.19243,53.47162],[-2.18981,53.47129],[-2.1774,53.46912],[-2.17404,53.46878],[-2.17154,53.46871],[-2.16742,53.46893],[-2.1579,53.47029],[-2.1499,53.4709]]]},"properties":{"year":null,"ward_code":"00BNFS","ward_name":"Gorton North","total_population":12724.0,"pct_male":null,"pct_female":null,"chinese_ethnic_count":145.0,"pct_chinese_ethnic":1.14,"china_born_count":252.0,"pct_china_born":1.98,"total_hh":5718.0,"pct_owner_occ":55.25,"pct_social_rent":19.86,"pct_private_rent":16.47,"pct_no_car":47.95,"pct_overcrowd":2.16,"pct_no_bath_wc":18.6,"emp_rate":60.01,"unemployment_rate":5.06,"self_employment_rate":3.94,"interp_coverage":0.98,"interp_uncertainty":"low","pct_china_born_note":"asia_born_proxy","china_born_count_note":"asia_born_proxy"}},{"type":"Feature","geometry":{"type":"Polygon","coordinates":[[[-2.16601,53.47867],[-2.16588,53.47778],[-2.16553,53.47761],[-2.16546,53.47723],[-2.16514,53.47718],[-2.16503,53.47692],[-2.16222,53.47632],[-2.16177,53.47517],[-2.1615,53.47488],[-2.15869,53.47528],[-2.15589,53.4753],[-2.15544,53.4748],[-2.15545,53.47447],[-2.15476,53.47442],[-2.15305,53.47359],[-2.15049,53.47281],[-2.15047,53.47253],[-2.15014,53.4723],[-2.15016,53.47107],[-2.1499,53.4709],[-2.16033,53.47002],[-2.16814,53.46886],[-2.17096,53.46872],[-2.17404,53.46878],[-2.17893,53.46936],[-2.19151,53.47152],[-2.19411,53.47178],[-2.19872,53.47172],[-2.20017,53.47189],[-2.20906,53.47462],[-2.21008,53.47533],[-2.21041,53.47612],[-2.21028,53.47686],[-2.20975,53.4779],[-2.2088,53.47899],[-2.20414,53.47918],[-2.19805,53.47884],[-2.19742,53.47892],[-2.19671,53.47911],[-2.1978,53.48151],[-2.19676,53.4814],[-2.19575,53.48154],[-2.1888,53.48307],[-2.18395,53.48124],[-2.16816,53.47926],[-2.16601,53.47867]]]},"properties":{"year":null,"ward_code":"00BNFG","ward_name":"Bradford","total_population":8445.0,"pct_male":null,"pct_female":null,"chinese_ethnic_count":179.0,"pct_chinese_ethnic":2.12,"china_born_count":241.0,"pct_china_born":2.85,"total_hh":3829.0,"pct_owner_occ":37.35,"pct_social_rent":28.32,"pct_private_rent":15.73,"pct_no_car":56.84,"pct_overcrowd":1.91,"pct_no_bath_wc":10.84,"emp_rate":51.81,"unemployment_rate":6.72,"self_employment_rate":3.19,"interp_coverage":0.98,"interp_uncertainty":"low","pct_china_born_note":"asia_born_proxy","china_born_count_note":"asia_born_proxy"}},{"type":"Feature","geometry":{"type":"Polygon","coordinates":[[[-2.23848,53.53879],[-2.23694,53.53882],[-2.23701,53.53828],[-2.23789,53.53783],[-2.23875,53.53701],[-2.24032,53.53728],[-2.2407,53.53667],[-2.24072,53.53615],[-2.24148,53.53571],[-2.24168,53.53531],[-2.24266,53.53501],[-2.24301,53.53434],[-2.24281,53.53371],[-2.24225,53.53301],[-2.23685,53.52753],[-2.2382,53.52643],[-2.23857,53.52559],[-2.23939,53.5246],[-2.23876,53.52455],[-2.23946,53.52326],[-2.23702,53.52349],[-2.23589,53.52345],[-2.23544,53.52322],[-2.23508,53.52274],[-2.23422,53.52245],[-2.23353,53.52229],[-2.23282,53.52279],[-2.23205,53.5229],[-2.23075,53.52229],[-2.22961,53.52207],[-2.22919,53.52182],[-2.22737,53.5218],[-2.22712,53.52188],[-2.227,53.52222],[-2.22646,53.52242],[-2.22531,53.52244],[-2.22519,53.52218],[-2.22554,53.52169],[-2.22547,53.52121],[-2.22462,53.52073],[-2.22322,53.52029],[-2.22226,53.51961],[-2.22213,53.51935],[-2.22216,53.51864],[-2.22112,53.51805],[-2.22119,53.51666],[-2.22263,53.51638],[-2.22305,53.51565],[-2.22252,53.51522],[-2.2211,53.51511],[-2.22029,53.51486],[-2.22049,53.51438],[-2.22173,53.51331],[-2.22172,53.51311],[-2.22126,53.51296],[-2.22119,53.5128],[-2.22199,53.51218],[-2.22234,53.51163],[-2.22283,53.51168],[-2.22289,53.51136],[-2.22409,53.51154],[-2.22515,53.51027],[-2.22634,53.51069],[-2.22855,53.51065],[-2.22953,53.51039],[-2.23336,53.51012],[-2.23515,53.51038],[-2.23694,53.51137],[-2.23811,53.51227],[-2.24285,53.51238],[-2.24518,53.51208],[-2.24689,53.51431],[-2.25024,53.51629],[-2.255,53.51759],[-2.25693,53.51792],[-2.25667,53.51821],[-2.25675,53.51969],[-2.25626,53.51997],[-2.2565,53.52025],[-2.25563,53.52063],[-2.25543,53.52046],[-2.25418,53.52067],[-2.25439,53.52166],[-2.25347,53.5218],[-2.25348,53.52246],[-2.25288,53.5225],[-2.25308,53.52348],[-2.25348,53.52424],[-2.25146,53.52402],[-2.25145,53.52532],[-2.25196,53.52553],[-2.25171,53.52577],[-2.24875,53.52482],[-2.24653,53.52928],[-2.25709,53.52709],[-2.2623,53.5251],[-2.26409,53.52469],[-2.26455,53.52566],[-2.26581,53.52673],[-2.26591,53.52698],[-2.26616,53.52947],[-2.26605,53.53025],[-2.26623,53.53113],[-2.26714,53.53253],[-2.26747,53.53405],[-2.26827,53.53498],[-2.26783,53.53511],[-2.26799,53.53545],[-2.26847,53.53517],[-2.26832,53.53535],[-2.26871,53.53595],[-2.26872,53.53665],[-2.26854,53.53713],[-2.26789,53.53783],[-2.25944,53.54283],[-2.25819,53.54327],[-2.2531,53.54394],[-2.25202,53.54429],[-2.25167,53.54459],[-2.24794,53.54413],[-2.24644,53.54359],[-2.23938,53.5401],[-2.23883,53.53974],[-2.23887,53.53948],[-2.23874,53.53939],[-2.23904,53.5392],[-2.23848,53.53879]]]},"properties":{"year":null,"ward_code":"00BNFP","ward_name":"Crumpsall","total_population":11275.0,"pct_male":null,"pct_female":null,"chinese_ethnic_count":34.0,"pct_chinese_ethnic":0.3,"china_born_count":964.0,"pct_china_born":8.55,"total_hh":5006.0,"pct_owner_occ":59.49,"pct_social_rent":6.57,"pct_private_rent":21.72,"pct_no_car":43.11,"pct_overcrowd":2.37,"pct_no_bath_wc":10.45,"emp_rate":58.88,"unemployment_rate":4.72,"self_employment_rate":5.99,"interp_coverage":0.97,"interp_uncertainty":"low","pct_china_born_note":"asia_born_proxy","china_born_count_note":"asia_born_proxy"}},{"type":"Feature","geometry":{"type":"Polygon","coordinates":[[[-2.22234,53.51163],[-2.22264,53.51117],[-2.22267,53.51082],[-2.22214,53.51059],[-2.22162,53.50997],[-2.22099,53.50968],[-2.2215,53.50934],[-2.22167,53.509],[-2.22066,53.50798],[-2.22187,53.50784],[-2.22261,53.50709],[-2.2241,53.50685],[-2.22537,53.50642],[-2.22576,53.50611],[-2.22571,53.50511],[-2.22468,53.50438],[-2.22498,53.50365],[-2.22485,53.50315],[-2.22382,53.50268],[-2.2234,53.50229],[-2.21857,53.50243],[-2.21951,53.49992],[-2.22087,53.49738],[-2.22397,53.49468],[-2.22599,53.49227],[-2.23771,53.4897],[-2.24267,53.48808],[-2.24401,53.48779],[-2.24585,53.48702],[-2.24879,53.48829],[-2.24911,53.4893],[-2.25033,53.48992],[-2.25064,53.49027],[-2.25084,53.49114],[-2.25066,53.49208],[-2.2509,53.49238],[-2.25158,53.49291],[-2.25346,53.49348],[-2.25293,53.49416],[-2.25253,53.4953],[-2.25341,53.49582],[-2.25491,53.49733],[-2.25444,53.49748],[-2.25445,53.49768],[-2.25534,53.4988],[-2.25521,53.49887],[-2.2554,53.49908],[-2.25431,53.49951],[-2.25421,53.49983],[-2.25484,53.50036],[-2.25457,53.50039],[-2.25454,53.50078],[-2.25374,53.50136],[-2.25246,53.50279],[-2.25259,53.50315],[-2.25152,53.50389],[-2.24885,53.50318],[-2.2471,53.5024],[-2.24573,53.50484],[-2.24528,53.50481],[-2.2457,53.50652],[-2.24878,53.50711],[-2.24851,53.50773],[-2.25027,53.50803],[-2.24924,53.50904],[-2.24922,53.50952],[-2.24801,53.50941],[-2.24775,53.51],[-2.24657,53.51074],[-2.24637,53.51105],[-2.24668,53.51124],[-2.24617,53.51169],[-2.24518,53.51208],[-2.24361,53.51234],[-2.23811,53.51227],[-2.23694,53.51137],[-2.23515,53.51038],[-2.23336,53.51012],[-2.22953,53.51039],[-2.22855,53.51065],[-2.22634,53.51069],[-2.22515,53.51027],[-2.22409,53.51154],[-2.22289,53.51136],[-2.22283,53.51168],[-2.22234,53.51163]]]},"properties":{"year":null,"ward_code":"00BNFM","ward_name":"Cheetham","total_population":12863.0,"pct_male":null,"pct_female":null,"chinese_ethnic_count":225.0,"pct_chinese_ethnic":1.75,"china_born_count":2406.0,"pct_china_born":18.7,"total_hh":4807.0,"pct_owner_occ":41.87,"pct_social_rent":23.0,"pct_private_rent":21.99,"pct_no_car":52.57,"pct_overcrowd":6.16,"pct_no_bath_wc":10.35,"emp_rate":44.53,"unemployment_rate":6.16,"self_employment_rate":4.48,"interp_coverage":0.98,"interp_uncertainty":"low","pct_china_born_note":"asia_born_proxy","china_born_count_note":"asia_born_proxy"}},{"type":"Feature","geometry":{"type":"Polygon","coordinates":[[[-2.20267,53.51802],[-2.20292,53.51727],[-2.20309,53.51728],[-2.20421,53.51385],[-2.20405,53.51296],[-2.20354,53.51169],[-2.2073,53.51125],[-2.20791,53.51038],[-2.20795,53.50988],[-2.20942,53.50978],[-2.20933,53.50962],[-2.20695,53.5084],[-2.20697,53.50746],[-2.2072,53.5071],[-2.20706,53.50691],[-2.20426,53.50745],[-2.20222,53.5064],[-2.20194,53.50657],[-2.20137,53.50633],[-2.20092,53.50661],[-2.19551,53.50465],[-2.19383,53.50269],[-2.2121,53.49675],[-2.21746,53.49452],[-2.22181,53.49645],[-2.22087,53.49738],[-2.22009,53.49865],[-2.21857,53.50243],[-2.2234,53.50229],[-2.22382,53.50268],[-2.22485,53.50315],[-2.22498,53.50365],[-2.22468,53.50438],[-2.22568,53.50504],[-2.22576,53.50611],[-2.22537,53.50642],[-2.2241,53.50685],[-2.22261,53.50709],[-2.22187,53.50784],[-2.22093,53.50787],[-2.22063,53.50804],[-2.22167,53.509],[-2.2215,53.50934],[-2.22099,53.50968],[-2.22162,53.50997],[-2.22214,53.51059],[-2.22268,53.5109],[-2.22209,53.51206],[-2.22119,53.5128],[-2.22126,53.51296],[-2.22172,53.51311],[-2.22173,53.51331],[-2.22049,53.51438],[-2.22029,53.51486],[-2.2211,53.51511],[-2.22252,53.51522],[-2.22305,53.51565],[-2.22263,53.51638],[-2.22119,53.51666],[-2.22118,53.51812],[-2.22017,53.51861],[-2.21986,53.51903],[-2.21915,53.51881],[-2.21906,53.51895],[-2.21566,53.51855],[-2.21514,53.52015],[-2.21452,53.52001],[-2.21403,53.51963],[-2.21319,53.51845],[-2.2134,53.51932],[-2.21431,53.5205],[-2.21402,53.52051],[-2.21185,53.51996],[-2.21055,53.51981],[-2.20883,53.51898],[-2.20514,53.51853],[-2.20412,53.51814],[-2.20267,53.51802]]]},"properties":{"year":null,"ward_code":"00BNFU","ward_name":"Harpurhey","total_population":8921.0,"pct_male":null,"pct_female":null,"chinese_ethnic_count":102.0,"pct_chinese_ethnic":1.14,"china_born_count":186.0,"pct_china_born":2.08,"total_hh":4207.0,"pct_owner_occ":36.13,"pct_social_rent":39.67,"pct_private_rent":14.46,"pct_no_car":59.89,"pct_overcrowd":1.94,"pct_no_bath_wc":9.59,"emp_rate":49.68,"unemployment_rate":6.4,"self_employment_rate":2.87,"interp_coverage":1.0,"interp_uncertainty":"low","pct_china_born_note":"asia_born_proxy","china_born_count_note":"asia_born_proxy"}},{"type":"Feature","geometry":{"type":"Polygon","coordinates":[[[-2.17835,53.50676],[-2.1783,53.50638],[-2.17868,53.50582],[-2.17788,53.50543],[-2.17678,53.50547],[-2.17656,53.50519],[-2.17769,53.50495],[-2.17709,53.50448],[-2.17715,53.50422],[-2.17688,53.50393],[-2.17611,53.50349],[-2.17545,53.50261],[-2.17372,53.50292],[-2.17365,53.50278],[-2.17084,53.50313],[-2.17264,53.50237],[-2.17076,53.50169],[-2.1706,53.50181],[-2.1685,53.50101],[-2.16724,53.49984],[-2.16686,53.49975],[-2.16633,53.49922],[-2.16573,53.49889],[-2.16432,53.49948],[-2.164,53.49927],[-2.16361,53.49934],[-2.1621,53.49825],[-2.16184,53.4983],[-2.16195,53.49793],[-2.16162,53.49738],[-2.16222,53.49705],[-2.16288,53.49693],[-2.16288,53.49677],[-2.16339,53.49672],[-2.16326,53.49613],[-2.1636,53.49529],[-2.16405,53.49475],[-2.16406,53.49418],[-2.16389,53.49366],[-2.16366,53.49356],[-2.16392,53.49295],[-2.16306,53.49285],[-2.16326,53.49215],[-2.16396,53.49138],[-2.16569,53.49144],[-2.16768,53.49188],[-2.16982,53.49127],[-2.17392,53.4913],[-2.17489,53.49147],[-2.17595,53.49145],[-2.17683,53.49173],[-2.17732,53.49209],[-2.17804,53.49217],[-2.18087,53.49133],[-2.18165,53.49088],[-2.18328,53.49093],[-2.18451,53.4907],[-2.18529,53.49096],[-2.18642,53.49066],[-2.18773,53.48974],[-2.18882,53.4893],[-2.18982,53.48955],[-2.19021,53.49043],[-2.19074,53.49059],[-2.1917,53.49019],[-2.19214,53.4892],[-2.19242,53.48901],[-2.19294,53.48907],[-2.1935,53.4899],[-2.19402,53.49],[-2.19424,53.48993],[-2.19487,53.48916],[-2.19594,53.48868],[-2.19709,53.48881],[-2.19842,53.4884],[-2.19969,53.48828],[-2.20119,53.48968],[-2.20661,53.49222],[-2.20966,53.49493],[-2.21141,53.49557],[-2.21182,53.49651],[-2.2121,53.49675],[-2.196,53.50192],[-2.19155,53.50353],[-2.18825,53.50499],[-2.1835,53.50767],[-2.18374,53.50702],[-2.1819,53.50705],[-2.18075,53.50668],[-2.17835,53.50676]]]},"properties":{"year":null,"ward_code":"00BNGC","ward_name":"Newton Heath","total_population":10691.0,"pct_male":null,"pct_female":null,"chinese_ethnic_count":42.0,"pct_chinese_ethnic":0.39,"china_born_count":95.0,"pct_china_born":0.89,"total_hh":4887.0,"pct_owner_occ":40.97,"pct_social_rent":39.73,"pct_private_rent":11.04,"pct_no_car":53.71,"pct_overcrowd":2.01,"pct_no_bath_wc":7.32,"emp_rate":53.25,"unemployment_rate":5.68,"self_employment_rate":3.94,"interp_coverage":0.98,"interp_uncertainty":"low","pct_china_born_note":"asia_born_proxy","china_born_count_note":"asia_born_proxy"}},{"type":"Feature","geometry":{"type":"Polygon","coordinates":[[[-2.18359,53.50761],[-2.18913,53.50456],[-2.19383,53.50269],[-2.19551,53.50465],[-2.20092,53.50661],[-2.20137,53.50633],[-2.20194,53.50657],[-2.20222,53.5064],[-2.20426,53.50745],[-2.20706,53.50691],[-2.2072,53.5071],[-2.20697,53.50746],[-2.20695,53.5084],[-2.20837,53.50903],[-2.20942,53.50978],[-2.20795,53.50988],[-2.20791,53.51038],[-2.2073,53.51125],[-2.20354,53.51169],[-2.20405,53.51296],[-2.20421,53.51385],[-2.20309,53.51728],[-2.20292,53.51727],[-2.20267,53.51802],[-2.20072,53.51751],[-2.19853,53.51742],[-2.19675,53.51822],[-2.19659,53.51879],[-2.19636,53.51892],[-2.1943,53.51919],[-2.19256,53.51917],[-2.19247,53.51882],[-2.19222,53.51884],[-2.19114,53.51938],[-2.19081,53.51983],[-2.1873,53.51934],[-2.18709,53.51987],[-2.18719,53.51995],[-2.18692,53.52021],[-2.18563,53.52065],[-2.18518,53.52029],[-2.18535,53.51948],[-2.18506,53.51874],[-2.18593,53.51803],[-2.18811,53.51721],[-2.18655,53.51651],[-2.18379,53.51493],[-2.18686,53.51327],[-2.18762,53.51263],[-2.18836,53.51168],[-2.18726,53.51135],[-2.18558,53.50949],[-2.18533,53.50886],[-2.18554,53.50862],[-2.18335,53.50833],[-2.18359,53.50761]]]},"properties":{"year":null,"ward_code":"00BNFY","ward_name":"Lightbowne","total_population":10484.0,"pct_male":null,"pct_female":null,"chinese_ethnic_count":93.0,"pct_chinese_ethnic":0.89,"china_born_count":212.0,"pct_china_born":2.02,"total_hh":4652.0,"pct_owner_occ":59.53,"pct_social_rent":15.64,"pct_private_rent":16.4,"pct_no_car":47.71,"pct_overcrowd":1.36,"pct_no_bath_wc":14.91,"emp_rate":58.4,"unemployment_rate":4.59,"self_employment_rate":4.29,"interp_coverage":1.0,"interp_uncertainty":"low","pct_china_born_note":"asia_born_proxy","china_born_count_note":"asia_born_proxy"}},{"type":"Feature","geometry":{"type":"Polygon","coordinates":[[[-2.172,53.52775],[-2.17017,53.52772],[-2.17016,53.52683],[-2.1705,53.52393],[-2.16927,53.52361],[-2.16477,53.52014],[-2.15914,53.52215],[-2.15613,53.51875],[-2.15538,53.51818],[-2.15475,53.51803],[-2.15533,53.51683],[-2.15623,53.5158],[-2.15641,53.5163],[-2.15819,53.51536],[-2.15844,53.51506],[-2.15833,53.51492],[-2.15884,53.51471],[-2.15865,53.51452],[-2.15937,53.51445],[-2.15969,53.51427],[-2.15967,53.51409],[-2.16036,53.51394],[-2.16018,53.51363],[-2.16079,53.51333],[-2.16036,53.51306],[-2.1607,53.51292],[-2.16325,53.51294],[-2.16386,53.51311],[-2.16439,53.51357],[-2.16699,53.51337],[-2.16766,53.51353],[-2.1682,53.51336],[-2.16863,53.51355],[-2.16923,53.51334],[-2.1714,53.51311],[-2.17168,53.51291],[-2.17149,53.51269],[-2.17157,53.51256],[-2.1726,53.51239],[-2.17294,53.51203],[-2.17319,53.51209],[-2.17327,53.51234],[-2.17348,53.51228],[-2.17329,53.51189],[-2.17366,53.51088],[-2.17405,53.5106],[-2.17355,53.51039],[-2.17389,53.51009],[-2.1743,53.51005],[-2.17398,53.50976],[-2.17352,53.50982],[-2.17393,53.50947],[-2.17451,53.50962],[-2.1743,53.50895],[-2.17483,53.50868],[-2.17525,53.50811],[-2.1756,53.50805],[-2.17556,53.50767],[-2.17579,53.50744],[-2.17674,53.50693],[-2.1774,53.50697],[-2.17786,53.5067],[-2.18027,53.50666],[-2.1819,53.50705],[-2.18374,53.50702],[-2.18335,53.50833],[-2.18554,53.50862],[-2.18533,53.50886],[-2.18558,53.50949],[-2.18726,53.51135],[-2.18836,53.51168],[-2.18762,53.51263],[-2.18686,53.51327],[-2.18379,53.51493],[-2.18655,53.51651],[-2.18811,53.51721],[-2.18593,53.51803],[-2.18506,53.51874],[-2.18535,53.51948],[-2.18518,53.52029],[-2.18563,53.52065],[-2.1836,53.52157],[-2.18449,53.52226],[-2.18439,53.52261],[-2.18252,53.52244],[-2.1823,53.52269],[-2.1811,53.52326],[-2.1818,53.52419],[-2.18162,53.5245],[-2.18193,53.52494],[-2.17954,53.52571],[-2.17756,53.52467],[-2.1763,53.52542],[-2.17585,53.52529],[-2.17549,53.52753],[-2.17206,53.5271],[-2.172,53.52775]]]},"properties":{"year":null,"ward_code":"00BNGB","ward_name":"Moston","total_population":12453.0,"pct_male":null,"pct_female":null,"chinese_ethnic_count":106.0,"pct_chinese_ethnic":0.85,"china_born_count":186.0,"pct_china_born":1.49,"total_hh":5113.0,"pct_owner_occ":63.39,"pct_social_rent":26.55,"pct_private_rent":6.7,"pct_no_car":35.87,"pct_overcrowd":1.29,"pct_no_bath_wc":6.24,"emp_rate":60.31,"unemployment_rate":4.0,"self_employment_rate":5.12,"interp_coverage":0.97,"interp_uncertainty":"low","pct_china_born_note":"asia_born_proxy","china_born_count_note":"asia_born_proxy"}},{"type":"Feature","geometry":{"type":"Polygon","coordinates":[[[-2.20675,53.53406],[-2.20816,53.53236],[-2.21122,53.53333],[-2.21238,53.53347],[-2.21323,53.53247],[-2.21434,53.53066],[-2.21452,53.52981],[-2.21418,53.52929],[-2.21444,53.52861],[-2.2144,53.52777],[-2.21463,53.52736],[-2.21501,53.52757],[-2.22155,53.52732],[-2.22215,53.52703],[-2.22254,53.52733],[-2.22271,53.52799],[-2.2264,53.52673],[-2.22685,53.52692],[-2.22719,53.52531],[-2.227,53.52484],[-2.23043,53.52483],[-2.23055,53.5246],[-2.23046,53.5243],[-2.23066,53.524],[-2.23066,53.52227],[-2.23215,53.52291],[-2.23282,53.52279],[-2.23361,53.52231],[-2.23508,53.52274],[-2.23544,53.52322],[-2.23589,53.52345],[-2.23702,53.52349],[-2.23946,53.52326],[-2.23876,53.52455],[-2.23939,53.5246],[-2.23857,53.52559],[-2.2382,53.52643],[-2.23685,53.52753],[-2.24225,53.53301],[-2.24303,53.53413],[-2.24266,53.53501],[-2.24168,53.53531],[-2.24148,53.53571],[-2.24072,53.53615],[-2.2407,53.53667],[-2.24032,53.53728],[-2.23875,53.53701],[-2.23789,53.53783],[-2.23701,53.53828],[-2.23694,53.53882],[-2.23676,53.53894],[-2.23554,53.53892],[-2.23511,53.53921],[-2.2341,53.53924],[-2.23392,53.53937],[-2.23377,53.53996],[-2.23353,53.54016],[-2.23074,53.54036],[-2.22946,53.54079],[-2.22884,53.54071],[-2.22776,53.54156],[-2.22445,53.54199],[-2.22187,53.54265],[-2.22083,53.54265],[-2.21976,53.54326],[-2.2195,53.54381],[-2.21886,53.5439],[-2.21782,53.54344],[-2.21766,53.54317],[-2.21773,53.54242],[-2.21695,53.54223],[-2.21506,53.54228],[-2.21405,53.542],[-2.213,53.54201],[-2.21087,53.54073],[-2.21056,53.53998],[-2.20965,53.53961],[-2.20853,53.53846],[-2.20747,53.53847],[-2.20704,53.53817],[-2.2056,53.53676],[-2.20688,53.53577],[-2.20695,53.53529],[-2.20675,53.53406]]]},"properties":{"year":null,"ward_code":"00BNFF","ward_name":"Blackley","total_population":10229.0,"pct_male":null,"pct_female":null,"chinese_ethnic_count":92.0,"pct_chinese_ethnic":0.9,"china_born_count":140.0,"pct_china_born":1.37,"total_hh":4627.0,"pct_owner_occ":45.13,"pct_social_rent":41.55,"pct_private_rent":8.8,"pct_no_car":50.81,"pct_overcrowd":1.54,"pct_no_bath_wc":6.51,"emp_rate":53.36,"unemployment_rate":5.2,"self_employment_rate":3.86,"interp_coverage":0.99,"interp_uncertainty":"low","pct_china_born_note":"asia_born_proxy","china_born_count_note":"asia_born_proxy"}}]}