{"type":"FeatureCollection","crs":{"type":"name","properties":{"name":"urn:ogc:def:crs:OGC:1.3:CRS84"}},"features":[{"type":"Feature","geometry":{"type":"Polygon","coordinates":[[[-2.267432328258409,53.38007697263097],[-2.266474689067251,53.379361711169715],[-2.261646460646158,53.37737804970925],[-2.258238539543509,53.37638128337819],[-2.255036778166864,53.375901106845895],[-2.253743701460965,53.37551987816498],[-2.248890838558078,53.37307902396052],[-2.247138992239666,53.37245345801789],[-2.244807767541702,53.37193693213876],[-2.241224083445694,53.37152176481109],[-2.237117826203448,53.37019800231686],[-2.237069884740914,53.36993743040792],[-2.237655085139172,53.36867504830746],[-2.23779737755741,53.36749107542157],[-2.240780791834276,53.35955541990952],[-2.244144405549768,53.35976234222646],[-2.244205971762392,53.36103230844615],[-2.245192260654373,53.36111832413733],[-2.246661368365638,53.36111810143472],[-2.246654211751087,53.360990028264766],[-2.249593133492032,53.360575211077276],[-2.254099659933277,53.36083816055866],[-2.256448284832694,53.360660661108454],[-2.258929203333043,53.35945439619665],[-2.258860534813056,53.35851334293145],[-2.258636423155819,53.35818041000999],[-2.25845057969296,53.35734205511701],[-2.258042122483151,53.35703564247108],[-2.2611043838194,53.3561244896433],[-2.26141401645426,53.355973052710056],[-2.261312318925007,53.35576643483697],[-2.262392958411147,53.355322794567925],[-2.264615778134248,53.35395557877132],[-2.263929657710967,53.35366902992219],[-2.264205095125922,53.352953478691894],[-2.266224481804453,53.351769969750094],[-2.266835371783965,53.351701255718226],[-2.267070045508338,53.350565433629946],[-2.271808861480379,53.3506832184185],[-2.273345180228342,53.35035977099699],[-2.278370964097051,53.34859569195446],[-2.280429471977377,53.34597932357815],[-2.28461855631565,53.34649256640427],[-2.286703516237004,53.34550318847156],[-2.285867969924035,53.345002652794946],[-2.286282321049786,53.34470502843176],[-2.286894495325289,53.343739248652575],[-2.287760182171371,53.34334615027775],[-2.287934332048908,53.34306989228119],[-2.289908361909715,53.342289269584725],[-2.290234325420073,53.34232330604544],[-2.29065529066434,53.3427978446091],[-2.291280009178368,53.34300418317618],[-2.294057142190303,53.3430449348914],[-2.294464132493192,53.342792677815254],[-2.295649655483361,53.343049041462024],[-2.295857793359257,53.34301088837802],[-2.296744154862405,53.342036893693866],[-2.29714919584568,53.34209167287937],[-2.297277956933864,53.34194373162792],[-2.297846185839182,53.34188936980209],[-2.301344379891337,53.34010531628303],[-2.302836466932,53.34097709637495],[-2.299019754619287,53.34282456412099],[-2.298741656083835,53.34319250782852],[-2.297456382566812,53.34380131575222],[-2.298146460755104,53.344427084130025],[-2.297659533088641,53.34440217856546],[-2.296455485118984,53.344931854183216],[-2.296437835022025,53.34563301581427],[-2.296712367865621,53.346030644269334],[-2.298318290577262,53.34671624028474],[-2.298160378501285,53.34709219319248],[-2.29736982708627,53.34768937902533],[-2.296898328749963,53.34833577305746],[-2.296931380907579,53.34856742987941],[-2.297753365268203,53.34904009699013],[-2.29887143668317,53.34899865064993],[-2.29863970617056,53.349718490405294],[-2.299069849011535,53.350005896552965],[-2.3000497734653,53.349832647290135],[-2.301068902218909,53.34902924078842],[-2.30145153432966,53.34903726680468],[-2.30165133844324,53.34921175554444],[-2.301359221839686,53.35018973416586],[-2.301437188236585,53.350395430237725],[-2.302008650588597,53.350641674592616],[-2.30307695611241,53.35052526229161],[-2.303583378562493,53.35070712317623],[-2.304338075510357,53.35147204526797],[-2.30452570136517,53.352239249579895],[-2.305349756953782,53.35266151093463],[-2.305622648550153,53.35312997818466],[-2.307905697154136,53.353516792278185],[-2.308705237200841,53.35416808980348],[-2.30923429887892,53.3543546359441],[-2.312222272840333,53.35475667608799],[-2.312602543574068,53.35520174311971],[-2.312745622439322,53.35608394937752],[-2.314302472259293,53.356715235506186],[-2.314327927319357,53.35692107060105],[-2.313995367461379,53.35741567005177],[-2.313735682053111,53.35741635348717],[-2.313638543241589,53.3575782196319],[-2.311963528997303,53.35757642760981],[-2.305956080318339,53.3583846726155],[-2.302175258194365,53.35936228211041],[-2.300027404894702,53.360209546871296],[-2.299604468153558,53.36022999455779],[-2.298448676586406,53.360871087418666],[-2.297597073345212,53.361502417627314],[-2.296362309417052,53.3630625967581],[-2.296183016170895,53.363710128096834],[-2.294868873923267,53.365949706301514],[-2.294986331295825,53.36599825423004],[-2.294739785991451,53.36660776043732],[-2.292891306125439,53.36968305654884],[-2.292710646001107,53.3702215411312],[-2.292093064578428,53.370739217447095],[-2.29082950434216,53.37237008720099],[-2.29011939108775,53.372723496767485],[-2.288275272069294,53.37430715973944],[-2.286399549065225,53.37565151955204],[-2.286492659232664,53.37574837425149],[-2.28601491012699,53.37569151500696],[-2.281216640275338,53.37861158205378],[-2.279539180016514,53.37998011554651],[-2.278412130523413,53.381192561341855],[-2.277565410856002,53.38109481486872],[-2.276373395593849,53.38135825899546],[-2.271965937123543,53.380270652635],[-2.267432328258409,53.38007697263097]]]},"properties":{"year":null,"ward_code":"00BNGK","ward_name":"Woodhouse Park","total_population":13817.45,"pct_male":48.43,"pct_female":51.57,"chinese_ethnic_count":15.26,"pct_chinese_ethnic":0.11,"china_born_count":15.26,"pct_china_born":0.11,"total_hh":4789.02,"pct_owner_occ":7.11,"pct_social_rent":0.12,"pct_private_rent":null,"pct_no_car":58.35,"pct_overcrowd":0.6,"pct_no_bath_wc":0.27,"emp_rate":23.47,"unemployment_rate":null,"self_employment_rate":null,"interp_coverage":0.92,"interp_uncertainty":"low"}},{"type":"Feature","geometry":{"type":"Polygon","coordinates":[[[-2.253869402195457,53.4120925077677],[-2.253980316768243,53.4105111218007],[-2.253732032544031,53.40947263270986],[-2.253523163961055,53.409213248738396],[-2.252074407124728,53.40843178140655],[-2.248565379655573,53.407492537709416],[-2.247496411211929,53.40684308684639],[-2.24687268371317,53.4066907319075],[-2.245727594836355,53.406853204821275],[-2.244900992033746,53.407468656245285],[-2.244850492739288,53.40784262914935],[-2.244997852817214,53.40812546910517],[-2.246321256226461,53.408878628118856],[-2.24665635455465,53.409269780906925],[-2.246690996218643,53.409814640188564],[-2.246386887793103,53.41031047792369],[-2.245491206533658,53.411020741785904],[-2.24431470408078,53.41253042356735],[-2.243461072373877,53.412717276056384],[-2.242604963714437,53.412635592415455],[-2.240178009107197,53.41186215180825],[-2.239458430253662,53.411476806564124],[-2.238818302624666,53.41050283095695],[-2.238214059550119,53.40795241632269],[-2.23835261182736,53.407428829470796],[-2.239134505288002,53.406869134640736],[-2.241133335876272,53.406221583481695],[-2.244123619467034,53.40470177193625],[-2.244666809788089,53.404180165153235],[-2.244794076957254,53.40358749687117],[-2.244617184315992,53.40315023203088],[-2.243930784174705,53.402547715735835],[-2.242848611154486,53.40185499888772],[-2.241132312852249,53.40105849780745],[-2.240000950049363,53.40071471603954],[-2.23846722055477,53.400777058579315],[-2.240604759042894,53.39977335349139],[-2.24249208270997,53.39949790339327],[-2.242468705038807,53.39902437090125],[-2.26880093129098,53.39805924588297],[-2.268914003488098,53.40026372771344],[-2.267636089620295,53.403633104825225],[-2.267699040688321,53.4060211122475],[-2.267494759025219,53.406799922980866],[-2.283209757403787,53.407739761522016],[-2.282999477622136,53.4089771069259],[-2.282612510127557,53.40997034891769],[-2.287435457520131,53.41068886685736],[-2.289301301282389,53.41054671640156],[-2.291640641242966,53.40986968741277],[-2.293000864109097,53.409079856559586],[-2.294017688248257,53.40819647579837],[-2.294280326097902,53.407632920642946],[-2.294519023578412,53.407548903860416],[-2.297903185022382,53.40668742892516],[-2.298079885383904,53.4072173122025],[-2.297933628806669,53.408217099471436],[-2.29768915053832,53.40834635824711],[-2.29758739108587,53.409849997079995],[-2.297281524010247,53.41089647867904],[-2.296544532670931,53.411797167709175],[-2.295010171695869,53.41269730408495],[-2.293934630983604,53.413601335152215],[-2.292485691492879,53.413744220995824],[-2.290904308643485,53.4141840298132],[-2.288938495672299,53.415345804223726],[-2.288099265867319,53.41541609245492],[-2.287249798325605,53.41494652167791],[-2.284169935504293,53.41616538334364],[-2.283045178032049,53.416007948034824],[-2.281442262450553,53.41528002608041],[-2.277796600021444,53.41549529774225],[-2.277947589672256,53.415576689414834],[-2.278410817999104,53.417321349985116],[-2.278246527054407,53.41822593465507],[-2.277354791211612,53.418764510070964],[-2.276436855279597,53.41896607859256],[-2.27599190515416,53.419306985942114],[-2.276488598242613,53.419507768852725],[-2.276413894448577,53.41963015639372],[-2.275418347740267,53.419408711491535],[-2.273910614557734,53.4215850734436],[-2.274170893654458,53.421663696929535],[-2.273706486236043,53.42256610122948],[-2.272686456406503,53.421674922047686],[-2.27204514875663,53.42139240623498],[-2.268356670892738,53.42131986206016],[-2.265885872640898,53.42060826951917],[-2.265501295606506,53.420239472798194],[-2.26539246663494,53.41990545228191],[-2.265721293390085,53.41864716715824],[-2.265662834611927,53.41794535113416],[-2.265442020274057,53.41752056786623],[-2.264583650596612,53.41664356647321],[-2.263495769596316,53.41612912567213],[-2.262829781004869,53.41601543056389],[-2.259741533649146,53.41629718990656],[-2.259153215612228,53.416816154939575],[-2.25884313166343,53.41778337896431],[-2.258423242979398,53.41801237123084],[-2.254828343442111,53.41820267936086],[-2.253066429887989,53.41874040649508],[-2.252696244797888,53.419191464404385],[-2.252761515648835,53.419809853625196],[-2.253145777318496,53.420380652192485],[-2.254211342865405,53.42094101649704],[-2.254263157851989,53.42135072646599],[-2.253160600376627,53.42239939439412],[-2.252537812863114,53.42244734299917],[-2.251553541488684,53.42211880465838],[-2.250619134047185,53.42139270371023],[-2.249900435939355,53.420479066889904],[-2.24966259965214,53.41993317134562],[-2.249878325145821,53.41927661125853],[-2.250755999309796,53.41828322058998],[-2.250651960179316,53.41730284280926],[-2.251071636314474,53.416232321610906],[-2.25125787320861,53.41512549183611],[-2.252321535528558,53.41364631818209],[-2.2536271452525,53.4125432876417],[-2.253869402195457,53.4120925077677]]]},"properties":{"year":null,"ward_code":"00BNGD","ward_name":"Northenden","total_population":12337.69,"pct_male":45.01,"pct_female":51.34,"chinese_ethnic_count":25.84,"pct_chinese_ethnic":0.21,"china_born_count":25.84,"pct_china_born":0.21,"total_hh":4834.62,"pct_owner_occ":35.13,"pct_social_rent":0.02,"pct_private_rent":null,"pct_no_car":52.06,"pct_overcrowd":0.5,"pct_no_bath_wc":0.36,"emp_rate":22.58,"unemployment_rate":null,"self_employment_rate":null,"interp_coverage":0.99,"interp_uncertainty":"low"}},{"type":"Feature","geometry":{"type":"Polygon","coordinates":[[[-2.214318432209863,53.44073371675266],[-2.216866213888493,53.44079849488821],[-2.222876057332663,53.44141492904852],[-2.232366981790139,53.441253008766424],[-2.247751091112392,53.44076449117694],[-2.249968307723401,53.4405270094294],[-2.256862208467058,53.43913459607587],[-2.25811893788719,53.43901755860245],[-2.258166802417456,53.43946238844049],[-2.257029040656698,53.44323469131372],[-2.257210571188813,53.44866869397143],[-2.244633772838116,53.448999905754505],[-2.244770930022131,53.45026616335453],[-2.238698379917831,53.45032789892345],[-2.238515167698922,53.45070652212911],[-2.237184226530839,53.44991912976446],[-2.235341098011982,53.44770458693985],[-2.230653253819491,53.4492561103816],[-2.223785333920564,53.45087278367164],[-2.222077571361388,53.45142770261534],[-2.220636003413933,53.44962110228667],[-2.219941082625733,53.4482704591656],[-2.2182238672557,53.44666017505885],[-2.217938410307607,53.44585988272996],[-2.218073400492412,53.44520965172951],[-2.215037200843561,53.445281736041366],[-2.21465616954696,53.44436278130205],[-2.214203705639721,53.44214708603194],[-2.214318432209863,53.44073371675266]]]},"properties":{"year":null,"ward_code":"00BNFR","ward_name":"Fallowfield","total_population":11579.57,"pct_male":49.58,"pct_female":47.33,"chinese_ethnic_count":104.13,"pct_chinese_ethnic":0.9,"china_born_count":104.13,"pct_china_born":0.9,"total_hh":4084.73,"pct_owner_occ":30.46,"pct_social_rent":0.01,"pct_private_rent":null,"pct_no_car":56.88,"pct_overcrowd":1.22,"pct_no_bath_wc":0.72,"emp_rate":22.67,"unemployment_rate":null,"self_employment_rate":null,"interp_coverage":1.0,"interp_uncertainty":"low"}},{"type":"Feature","geometry":{"type":"Polygon","coordinates":[[[-2.212100148870459,53.49674589123947],[-2.211815975030018,53.49651361356851],[-2.21141466253779,53.49557137796465],[-2.20966435091698,53.49492645547962],[-2.206606335828214,53.49221559477197],[-2.203086631608543,53.49057675017972],[-2.205170261790508,53.489397392654325],[-2.214520183284063,53.4854827815449],[-2.222257326565407,53.481815666256765],[-2.224642386699393,53.48083061657646],[-2.220936713929976,53.478515695482926],[-2.218462591732519,53.47792252033949],[-2.218266184492799,53.47772794427894],[-2.218046020913818,53.476298338873136],[-2.216861618044844,53.4753252488115],[-2.219284482714708,53.47541603972949],[-2.219367551867473,53.475183877204344],[-2.220401385658498,53.47462019531512],[-2.221193282147817,53.47389234528472],[-2.222423352862836,53.47350468020794],[-2.224943908594767,53.47349714045244],[-2.229074534249177,53.47396119311021],[-2.230456814837391,53.47387145168242],[-2.235015022411559,53.472053913546496],[-2.238362925249638,53.47157370127401],[-2.242554645071577,53.47039394103761],[-2.244393105306551,53.470232054052474],[-2.254726147000491,53.47105537071251],[-2.256102029791458,53.471333873036876],[-2.257017086128799,53.47169847293672],[-2.258213091878395,53.47266411845999],[-2.25927103156866,53.47298260106772],[-2.261860425648056,53.475579951206626],[-2.263332957387435,53.4756963761382],[-2.26316763588879,53.47621807534022],[-2.262714122661502,53.476735061119435],[-2.260196753647654,53.477769758801216],[-2.255788701178477,53.48059632654174],[-2.253723884708317,53.481544520036834],[-2.248940293411422,53.48319133233003],[-2.246056215210164,53.48478096314658],[-2.245693132784489,53.485024397345256],[-2.245106721802216,53.48631375438664],[-2.245321716225841,53.48678060867895],[-2.245853496795613,53.487021188811354],[-2.244869048600415,53.48748527045768],[-2.237713925718939,53.48970358567089],[-2.225991580885814,53.49226755422393],[-2.223973756887041,53.49467660551739],[-2.22180965473781,53.4964513591569],[-2.217461313212334,53.494521515771766],[-2.212100148870459,53.49674589123947]]]},"properties":{"year":null,"ward_code":"00BNFK","ward_name":"Central","total_population":11857.16,"pct_male":46.03,"pct_female":46.95,"chinese_ethnic_count":18.67,"pct_chinese_ethnic":0.16,"china_born_count":18.67,"pct_china_born":0.16,"total_hh":4416.04,"pct_owner_occ":3.12,"pct_social_rent":0.33,"pct_private_rent":null,"pct_no_car":84.3,"pct_overcrowd":1.76,"pct_no_bath_wc":1.09,"emp_rate":19.04,"unemployment_rate":null,"self_employment_rate":null,"interp_coverage":1.0,"interp_uncertainty":"low"}},{"type":"Feature","geometry":{"type":"Polygon","coordinates":[[[-2.166015772877997,53.49157847843795],[-2.166472358085074,53.491257004093825],[-2.166639819574657,53.490841617089266],[-2.166570318120603,53.49041195380144],[-2.166089571037352,53.48972697880167],[-2.166180630032208,53.48892752640084],[-2.169016639863599,53.48851926023968],[-2.168934222801722,53.48828118255919],[-2.169285922476846,53.48813518487669],[-2.169188297286449,53.48786454620921],[-2.16891899252657,53.48789380113697],[-2.168813934205693,53.48764317331073],[-2.169021968328578,53.48760945855638],[-2.168882784493082,53.48719084798736],[-2.169392080090608,53.487121030559116],[-2.169320173439212,53.48680568766139],[-2.169649726238489,53.4867746066026],[-2.169609246851818,53.48607524922807],[-2.169094284780488,53.48613721527836],[-2.168954357157174,53.48576720371518],[-2.169276326951045,53.48572882630716],[-2.168954939065465,53.48449421207851],[-2.168273257514775,53.48314234724903],[-2.168446069349071,53.483002853630076],[-2.168057221349822,53.48231859354716],[-2.168083402373863,53.48203289616704],[-2.167702102612205,53.48123233874004],[-2.167498603058168,53.48121099476053],[-2.167561804813205,53.48084735980159],[-2.16742685229747,53.48081167137502],[-2.167707509120047,53.480116546597884],[-2.16803050666047,53.48007546961474],[-2.166504444696553,53.47976403648914],[-2.166334481790616,53.47951043172083],[-2.16599274516265,53.479537029024854],[-2.165594915380813,53.4788300295637],[-2.165596997125205,53.47854881162599],[-2.168158586839937,53.479260697118626],[-2.183945990800936,53.48124435802138],[-2.188798604762631,53.48306789464001],[-2.195745973159506,53.48153934046357],[-2.196762463818935,53.481401152835744],[-2.197801283230228,53.4815098306719],[-2.196705232529303,53.479108910921354],[-2.197422908187803,53.478921783241695],[-2.198047842315282,53.4788426596986],[-2.204142892499668,53.47917563295821],[-2.208800738868942,53.47898865593745],[-2.209750753507434,53.47790134827253],[-2.210369240953925,53.47652497118673],[-2.210321342081535,53.47569733268947],[-2.209730273769177,53.474990810328464],[-2.211808376774056,53.475068036367496],[-2.216861618044844,53.4753252488115],[-2.218046020913818,53.476298338873136],[-2.218266184492799,53.47772794427894],[-2.218462591732519,53.47792252033949],[-2.220936713929976,53.478515695482926],[-2.224642386699393,53.48083061657646],[-2.222257326565407,53.481815666256765],[-2.214520183284063,53.4854827815449],[-2.205170261790508,53.489397392654325],[-2.203086631608543,53.49057675017972],[-2.201194155285994,53.48967745934944],[-2.199687963266464,53.488278636578244],[-2.199529625095019,53.488278901348934],[-2.198423989380376,53.488402929571805],[-2.197087397487635,53.488813274769065],[-2.195939966343493,53.48868034122243],[-2.194866003502205,53.489162979825274],[-2.194236514681339,53.4899271778321],[-2.194015477555468,53.490001133749686],[-2.193497859229552,53.48989608010608],[-2.192935030018837,53.4890655610815],[-2.192419531304838,53.48900964954695],[-2.192142968751643,53.489196322804574],[-2.191700013569397,53.49018829523399],[-2.190735364663883,53.49059347965035],[-2.190208540323822,53.49043139752837],[-2.189819328460427,53.48955227453519],[-2.188823051491637,53.48930470736704],[-2.187730895786376,53.48974349872899],[-2.186416149040721,53.4906559148257],[-2.185287094523247,53.49095878216075],[-2.184508323152458,53.490696800307056],[-2.183280978855389,53.49092789311653],[-2.181653001649626,53.49087982342684],[-2.180866463665831,53.49133043833259],[-2.178039716033516,53.492165280326844],[-2.177323468255653,53.49208825855725],[-2.176834954696738,53.49173394235422],[-2.175949210875272,53.49144592804578],[-2.174894282215576,53.49147332381746],[-2.173919996051684,53.49129778848746],[-2.169818412941923,53.49127223521572],[-2.167742779808552,53.49188357425035],[-2.166015772877997,53.49157847843795]]]},"properties":{"year":null,"ward_code":"00BNFE","ward_name":"Beswick and Clayton","total_population":12496.95,"pct_male":49.44,"pct_female":50.39,"chinese_ethnic_count":28.83,"pct_chinese_ethnic":0.23,"china_born_count":28.83,"pct_china_born":0.23,"total_hh":4513.09,"pct_owner_occ":24.37,"pct_social_rent":0.79,"pct_private_rent":null,"pct_no_car":71.4,"pct_overcrowd":1.02,"pct_no_bath_wc":10.19,"emp_rate":20.98,"unemployment_rate":null,"self_employment_rate":null,"interp_coverage":0.99,"interp_uncertainty":"low"}},{"type":"Feature","geometry":{"type":"Polygon","coordinates":[[[-2.193920728948262,53.53163023256357],[-2.188811992706343,53.5301222011781],[-2.185866851230541,53.529022928396465],[-2.183986849386395,53.52892079354729],[-2.175494129168968,53.52752859077332],[-2.175849700174108,53.52528629887978],[-2.176295249270279,53.52542131027956],[-2.177562012885176,53.5246742414861],[-2.179603170554606,53.52570513128503],[-2.181928531011146,53.52494181228188],[-2.181615997257301,53.52449848466048],[-2.181804634827572,53.524188102149296],[-2.181100684058216,53.523259713920496],[-2.182299253048054,53.52268994144903],[-2.182524427481929,53.522442135850625],[-2.184393589983979,53.52260823285806],[-2.184490095082514,53.522257655843276],[-2.183598637625627,53.521572550819016],[-2.186001239841512,53.52043432457836],[-2.186915577298987,53.52021352597136],[-2.187192016050973,53.51994793168405],[-2.187087485101114,53.51986636301568],[-2.187297727340313,53.51933852738441],[-2.190812606978396,53.51982619201016],[-2.191140988415778,53.51937905567448],[-2.19221971970007,53.51883717141428],[-2.19247180749931,53.51882329050732],[-2.192557751335478,53.51917005495614],[-2.194296959882882,53.51918521319521],[-2.196128449733048,53.518977169727926],[-2.196593250954327,53.51879130144639],[-2.196748954659758,53.51821859509982],[-2.198529534769904,53.51741651899502],[-2.200722870605325,53.51750554682448],[-2.203077213507654,53.518143111377526],[-2.204117813668423,53.51813965279452],[-2.205062247078571,53.51851638828638],[-2.208825545843213,53.518983445917605],[-2.210549004926621,53.51981465305296],[-2.211852910414443,53.519957284203834],[-2.21402001601217,53.520512385962306],[-2.214307938761765,53.52050176350301],[-2.213398922133408,53.519318886143786],[-2.21319377004266,53.51844738342301],[-2.21403253728777,53.51963318647196],[-2.21451991594073,53.52001067474556],[-2.215140407918223,53.52015167927272],[-2.215662984123676,53.51855165036496],[-2.219064698199839,53.51894802848903],[-2.219152908688725,53.518809611596836],[-2.219864311996208,53.51903020606186],[-2.220168465314525,53.51860803268935],[-2.221176383378863,53.518117414978384],[-2.222160857595521,53.518643101475725],[-2.22212967205019,53.519347062813964],[-2.222263938751158,53.51960579845627],[-2.223217712571459,53.52029134620443],[-2.224619897991881,53.52073364418504],[-2.22547128340488,53.52120870262138],[-2.225540326534195,53.52169478882335],[-2.225181358234347,53.5222651087898],[-2.225461701645587,53.522509234426046],[-2.226820886373603,53.52230076483619],[-2.226997233492993,53.52222487322568],[-2.227116046814285,53.52187775348824],[-2.227494044722416,53.52178546234251],[-2.229193857533425,53.521816203263086],[-2.229613288667223,53.52206622817128],[-2.230660320386013,53.522270944274524],[-2.230659840455638,53.524003177701815],[-2.230463968699273,53.52430354542067],[-2.230548534986105,53.52459915632295],[-2.23042533395244,53.52482859483557],[-2.227004148809321,53.52483570765093],[-2.227188629622928,53.525310334948244],[-2.226848911152765,53.52692242665826],[-2.226404319307712,53.526733674849545],[-2.222706233496434,53.52799002051795],[-2.22253822735834,53.52732715031785],[-2.222147775370257,53.52703210326049],[-2.221554845405551,53.52732083291309],[-2.215014926292093,53.52756732466242],[-2.214626400370617,53.527362136908565],[-2.214397483046732,53.527772646096714],[-2.214441327916633,53.52861382233535],[-2.214178888087802,53.52929178873299],[-2.214519514540763,53.52980913814843],[-2.214335251713403,53.53066140038511],[-2.213226562737727,53.532471732194274],[-2.212377771730781,53.533472919619186],[-2.211216760587062,53.53332835721791],[-2.208164459540178,53.53236296948063],[-2.206745637918746,53.534061702341724],[-2.205430226695101,53.53289633174078],[-2.204387456487929,53.53252791376763],[-2.200839044524648,53.53188592866325],[-2.200824848406514,53.53177528250479],[-2.196940237344995,53.53180674996752],[-2.193920728948262,53.53163023256357]]]},"properties":{"year":null,"ward_code":"00BNFL","ward_name":"Charlestown","total_population":13541.12,"pct_male":45.79,"pct_female":54.21,"chinese_ethnic_count":13.01,"pct_chinese_ethnic":0.1,"china_born_count":13.01,"pct_china_born":0.1,"total_hh":5324.66,"pct_owner_occ":30.31,"pct_social_rent":0.09,"pct_private_rent":null,"pct_no_car":61.96,"pct_overcrowd":0.64,"pct_no_bath_wc":0.81,"emp_rate":22.41,"unemployment_rate":null,"self_employment_rate":null,"interp_coverage":1.0,"interp_uncertainty":"low"}},{"type":"Feature","geometry":{"type":"Polygon","coordinates":[[[-2.26880093129098,53.39805924588297],[-2.268816282879542,53.39639632278167],[-2.269217558088189,53.395418186227424],[-2.269756561949025,53.394599008329934],[-2.272998103029725,53.390992826433894],[-2.273918628216913,53.38938513166175],[-2.275210357325651,53.3864069226729],[-2.277767498046639,53.381973267052],[-2.279539180016514,53.37998011554651],[-2.281081999072941,53.378709934926036],[-2.28601491012699,53.37569151500696],[-2.286318273315238,53.37582028320478],[-2.285641860900236,53.37620730046812],[-2.287222173843181,53.37633046104189],[-2.288622181422462,53.37690940405275],[-2.292534545462908,53.38032619213998],[-2.292776608495683,53.380823627050574],[-2.293830383201407,53.38123984289835],[-2.294322148116733,53.38169986029863],[-2.296519232656137,53.38222222377768],[-2.296886122084063,53.38269040144423],[-2.297749160497306,53.38289414233335],[-2.298166514997231,53.38345658060564],[-2.298544070187401,53.38349804990283],[-2.299185232887681,53.38401581702629],[-2.299943945071181,53.384341991312475],[-2.300226719941612,53.3850019492543],[-2.299596233182705,53.385407181575054],[-2.299839343594143,53.385569202262346],[-2.299176193721603,53.38614164681406],[-2.299168803579244,53.386361041581715],[-2.299418659562112,53.38661490549316],[-2.299290535238856,53.386834327098875],[-2.299746330790833,53.387041881868406],[-2.299381512605141,53.38754616023411],[-2.299761225642944,53.38778958645972],[-2.299626622524332,53.38799217151914],[-2.299962639402425,53.38813514485062],[-2.299974712377203,53.3883148843967],[-2.29976044682103,53.38844744079163],[-2.29990369920794,53.388706063155595],[-2.300368485403095,53.388918940627214],[-2.300405421232986,53.38902586643517],[-2.300155607273676,53.389049809828975],[-2.300138598576134,53.38936979532185],[-2.300480942591101,53.389542513474204],[-2.299937790791966,53.38981172185673],[-2.300126200251729,53.39041250271462],[-2.300008632623197,53.390798459994144],[-2.300297918661099,53.39110868212214],[-2.299911325508104,53.39192846278332],[-2.300054363240891,53.392154787372135],[-2.300475164260654,53.39232169808948],[-2.300667235260737,53.39270323070342],[-2.301151946833992,53.39300312777725],[-2.301483473113264,53.39350200269357],[-2.301719519812412,53.39352218932796],[-2.301840477493508,53.39381401035011],[-2.302515765403409,53.39401370904549],[-2.302943331611723,53.39433340414748],[-2.304600367170888,53.396183645196125],[-2.304615720097718,53.39668780973442],[-2.304982197903801,53.39700399927955],[-2.306607450717826,53.39715179701957],[-2.307377695743278,53.39740964397424],[-2.308600852210001,53.398944381661366],[-2.281995148296657,53.39766643147725],[-2.26880093129098,53.39805924588297]]]},"properties":{"year":null,"ward_code":"00BNFB","ward_name":"Baguley","total_population":13963.36,"pct_male":46.67,"pct_female":53.33,"chinese_ethnic_count":23.31,"pct_chinese_ethnic":0.17,"china_born_count":23.31,"pct_china_born":0.17,"total_hh":5178.12,"pct_owner_occ":18.55,"pct_social_rent":0.04,"pct_private_rent":null,"pct_no_car":54.89,"pct_overcrowd":0.67,"pct_no_bath_wc":0.2,"emp_rate":22.46,"unemployment_rate":null,"self_employment_rate":null,"interp_coverage":1.0,"interp_uncertainty":"low"}},{"type":"Feature","geometry":{"type":"Polygon","coordinates":[[[-2.304258859325039,53.40989660808977],[-2.303617459164272,53.40960780002838],[-2.301487321024082,53.409789316340785],[-2.30029902199643,53.40960635831719],[-2.299516645262141,53.408919014435995],[-2.297860887304984,53.408368393684526],[-2.298079885383904,53.4072173122025],[-2.297903185022382,53.40668742892516],[-2.294280326097902,53.407632920642946],[-2.294017688248257,53.40819647579837],[-2.293000864109097,53.409079856559586],[-2.291280564802987,53.410011576868406],[-2.289301301282389,53.41054671640156],[-2.287435457520131,53.41068886685736],[-2.282612510127557,53.40997034891769],[-2.282999477622136,53.4089771069259],[-2.283209757403787,53.407739761522016],[-2.267494759025219,53.406799922980866],[-2.267699040688321,53.4060211122475],[-2.267636089620295,53.403633104825225],[-2.268914003488098,53.40026372771344],[-2.26880093129098,53.39805924588297],[-2.281995148296657,53.39766643147725],[-2.308600852210001,53.398944381661366],[-2.309396019747624,53.40010466244443],[-2.310032105983664,53.40051564097327],[-2.319896294825016,53.41163713082185],[-2.318962405548835,53.411508404922635],[-2.318215389029192,53.41116804517175],[-2.31678585061402,53.41111791153736],[-2.316033730668911,53.41093564485254],[-2.312800390263499,53.40986187609885],[-2.307541774293486,53.40992048985904],[-2.307214093942072,53.40978819368542],[-2.305973787065567,53.41009081500737],[-2.304258859325039,53.40989660808977]]]},"properties":{"year":null,"ward_code":"00BNFH","ward_name":"Brooklands","total_population":11462.46,"pct_male":46.62,"pct_female":53.38,"chinese_ethnic_count":18.49,"pct_chinese_ethnic":0.16,"china_born_count":18.49,"pct_china_born":0.16,"total_hh":4356.26,"pct_owner_occ":25.18,"pct_social_rent":0.02,"pct_private_rent":null,"pct_no_car":53.08,"pct_overcrowd":0.48,"pct_no_bath_wc":0.19,"emp_rate":22.9,"unemployment_rate":null,"self_employment_rate":null,"interp_coverage":1.0,"interp_uncertainty":"low"}},{"type":"Feature","geometry":{"type":"Polygon","coordinates":[[[-2.267432328258409,53.38007697263097],[-2.271965937123543,53.380270652635],[-2.276373395593849,53.38135825899546],[-2.277565410856002,53.38109481486872],[-2.278412130523413,53.381192561341855],[-2.277767498046639,53.381973267052],[-2.275914826483963,53.38512722728331],[-2.274893248916681,53.38706832252925],[-2.273918628216913,53.38938513166175],[-2.272998103029725,53.390992826433894],[-2.269756561949025,53.394599008329934],[-2.269217558088189,53.395418186227424],[-2.268816282879542,53.39639632278167],[-2.26880093129098,53.39805924588297],[-2.263648387663343,53.39824939120017],[-2.26360497275958,53.397840788014996],[-2.259741559782851,53.396872040678744],[-2.258022669610504,53.39659992694086],[-2.257782876974914,53.39626787507863],[-2.257171077448868,53.39604897318235],[-2.256886605454115,53.39352743759045],[-2.256276008119625,53.392015864526265],[-2.255906510039805,53.38651029901348],[-2.25605709503774,53.382326615721055],[-2.259591459895385,53.38210690760167],[-2.263452022724493,53.381079918164765],[-2.266196460102656,53.38099741932923],[-2.266803720826059,53.38074437898174],[-2.267432328258409,53.38007697263097]]]},"properties":{"year":null,"ward_code":"00BNFD","ward_name":"Benchill","total_population":14712.63,"pct_male":47.95,"pct_female":52.05,"chinese_ethnic_count":15.75,"pct_chinese_ethnic":0.11,"china_born_count":15.75,"pct_china_born":0.11,"total_hh":4876.63,"pct_owner_occ":1.81,"pct_social_rent":0.08,"pct_private_rent":null,"pct_no_car":68.56,"pct_overcrowd":1.4,"pct_no_bath_wc":0.21,"emp_rate":17.78,"unemployment_rate":null,"self_employment_rate":null,"interp_coverage":1.0,"interp_uncertainty":"low"}},{"type":"Feature","geometry":{"type":"Polygon","coordinates":[[[-2.241135240783207,53.37948501805992],[-2.24128613430447,53.37875467998546],[-2.242064122504599,53.378105071876476],[-2.242018580817688,53.37777792240197],[-2.2418146971467,53.3776083962507],[-2.24179373298782,53.37681041316845],[-2.241437265092586,53.376574629821036],[-2.241316453399347,53.37614257399761],[-2.241657801840831,53.375620539566164],[-2.241401678673115,53.37526685674363],[-2.241318922828186,53.374753826801744],[-2.240259850027075,53.37402619872977],[-2.24004381482338,53.37361568734837],[-2.239903584008234,53.37298340080072],[-2.240442324578066,53.37281855200134],[-2.240372360255764,53.3726552146272],[-2.238984441408006,53.372072893003214],[-2.238651705707619,53.37136514664592],[-2.238679769186667,53.370777806917474],[-2.241224083445694,53.37152176481109],[-2.244807767541702,53.37193693213876],[-2.247138992239666,53.37245345801789],[-2.248890838558078,53.37307902396052],[-2.253971083929038,53.375604782875094],[-2.255823974754786,53.37604492314287],[-2.258238539543509,53.37638128337819],[-2.261646460646158,53.37737804970925],[-2.26707805166634,53.37969210452891],[-2.267432328258409,53.38007697263097],[-2.266803720826059,53.38074437898174],[-2.266196460102656,53.38099741932923],[-2.263452022724493,53.381079918164765],[-2.259591459895385,53.38210690760167],[-2.25605709503774,53.382326615721055],[-2.255879388485598,53.38481066703486],[-2.256164454059162,53.39065601826801],[-2.256276008119625,53.392015864526265],[-2.256886605454115,53.39352743759045],[-2.257171077448868,53.39604897318235],[-2.257782876974914,53.39626787507863],[-2.258022669610504,53.39659992694086],[-2.259741559782851,53.396872040678744],[-2.26360497275958,53.397840788014996],[-2.263648387663343,53.39824939120017],[-2.242468705038807,53.39902437090125],[-2.242574220265756,53.397746092105194],[-2.246867836377771,53.39608596537344],[-2.245565774309353,53.39525181527747],[-2.244421647586846,53.394122531570986],[-2.246029559631734,53.39377897910745],[-2.24603678988809,53.391371841677454],[-2.24448022132296,53.39132237523784],[-2.243938288940761,53.39039457558942],[-2.245788592644163,53.39021521377062],[-2.245677731941389,53.38989185502269],[-2.246235336408922,53.38783399896622],[-2.242595627421059,53.38766709093052],[-2.242535692844875,53.38593852985218],[-2.242410692631634,53.385686254037715],[-2.242977256854565,53.38485281810554],[-2.2428235046513,53.38425286165319],[-2.242482736512131,53.38406366963082],[-2.243090166210657,53.38306553954236],[-2.242627040156858,53.382506656688626],[-2.242796750789704,53.38219620811116],[-2.242024473297359,53.38204328309174],[-2.242057257293646,53.3816951914815],[-2.241163120636496,53.38117285287115],[-2.241197466567297,53.38093374682909],[-2.240915616409641,53.38052167695533],[-2.241302768457373,53.380116409681754],[-2.241135240783207,53.37948501805992]]]},"properties":{"year":null,"ward_code":"00BNGG","ward_name":"Sharston","total_population":11420.1,"pct_male":46.9,"pct_female":53.1,"chinese_ethnic_count":8.76,"pct_chinese_ethnic":0.08,"china_born_count":8.76,"pct_china_born":0.08,"total_hh":4199.54,"pct_owner_occ":22.77,"pct_social_rent":0.07,"pct_private_rent":null,"pct_no_car":56.65,"pct_overcrowd":0.75,"pct_no_bath_wc":0.14,"emp_rate":20.78,"unemployment_rate":null,"self_employment_rate":null,"interp_coverage":0.99,"interp_uncertainty":"low"}},{"type":"Feature","geometry":{"type":"Polygon","coordinates":[[[-2.236361830390074,53.4254674899391],[-2.242349911342485,53.4207724459503],[-2.247395035344861,53.41552990996103],[-2.249388191627908,53.414186463303395],[-2.253869402195457,53.4120925077677],[-2.2536271452525,53.4125432876417],[-2.252321535528558,53.41364631818209],[-2.25125787320861,53.41512549183611],[-2.251071636314474,53.416232321610906],[-2.250651960179316,53.41730284280926],[-2.250755999309796,53.41828322058998],[-2.249878325145821,53.41927661125853],[-2.24966259965214,53.41993317134562],[-2.249900435939355,53.420479066889904],[-2.250619134047185,53.42139270371023],[-2.251553541488684,53.42211880465838],[-2.252537812863114,53.42244734299917],[-2.253160600376627,53.42239939439412],[-2.254263157851989,53.42135072646599],[-2.254211342865405,53.42094101649704],[-2.253145777318496,53.420380652192485],[-2.252761515648835,53.419809853625196],[-2.252696244797888,53.419191464404385],[-2.253066429887989,53.41874040649508],[-2.254828343442111,53.41820267936086],[-2.258423242979398,53.41801237123084],[-2.25884313166343,53.41778337896431],[-2.2593545590571,53.416523868021194],[-2.259838626394061,53.41625933297712],[-2.263271125756628,53.41606923224708],[-2.264669581668764,53.41670179548637],[-2.26550896055086,53.41762379223708],[-2.265721293390085,53.41864716715824],[-2.26539246663494,53.41990545228191],[-2.265501295606506,53.420239472798194],[-2.265885872640898,53.42060826951917],[-2.268356670892738,53.42131986206016],[-2.27204514875663,53.42139240623498],[-2.272686456406503,53.421674922047686],[-2.273587140419501,53.42250795536685],[-2.275611418502812,53.42329064018778],[-2.280001178494133,53.42378658228636],[-2.283175305257545,53.424759688405004],[-2.283882350293248,53.425148168593864],[-2.284350643386407,53.42562625587614],[-2.285551263025266,53.4276609852019],[-2.285932257729264,53.42920890331173],[-2.278303573762579,53.43040780812027],[-2.267223862252992,53.433376885446485],[-2.265753337662289,53.43410205919359],[-2.263187097884387,53.43609701612871],[-2.261255020526883,53.43713831380402],[-2.243134533979216,53.43037510600298],[-2.240285987384954,53.428833161558096],[-2.240109534893421,53.42898435619228],[-2.238122554061977,53.42757179305169],[-2.237436952482887,53.426912504965955],[-2.236361830390074,53.4254674899391]]]},"properties":{"year":null,"ward_code":"00BNFC","ward_name":"Barlow Moor","total_population":12754.96,"pct_male":45.84,"pct_female":48.09,"chinese_ethnic_count":61.87,"pct_chinese_ethnic":0.49,"china_born_count":61.87,"pct_china_born":0.49,"total_hh":5072.74,"pct_owner_occ":24.2,"pct_social_rent":0.1,"pct_private_rent":null,"pct_no_car":56.6,"pct_overcrowd":1.69,"pct_no_bath_wc":1.0,"emp_rate":21.43,"unemployment_rate":null,"self_employment_rate":null,"interp_coverage":1.0,"interp_uncertainty":"low"}},{"type":"Feature","geometry":{"type":"Polygon","coordinates":[[[-2.26668569152524,53.439220628130975],[-2.266717940239042,53.43911745005205],[-2.261255020526883,53.43713831380402],[-2.263187097884387,53.43609701612871],[-2.265753337662289,53.43410205919359],[-2.266900976185206,53.43349192491687],[-2.278303573762579,53.43040780812027],[-2.285932257729264,53.42920890331173],[-2.287458385187431,53.431012780652495],[-2.288981676511661,53.431964412769055],[-2.293276037028936,53.432659545624304],[-2.296210104937317,53.43252561213982],[-2.299453306036725,53.433277892643126],[-2.299865561000268,53.43350887874336],[-2.300045584404849,53.43382386572819],[-2.29994500568886,53.43516987416324],[-2.300200137314635,53.436331335412035],[-2.299698067868886,53.43730863546202],[-2.296080900789511,53.435992985968646],[-2.295450633697171,53.4358667374292],[-2.294216188525791,53.43604871767949],[-2.29488287358812,53.437291138664825],[-2.295397446321924,53.43877663014335],[-2.292953287300735,53.43886522559553],[-2.291401410009705,53.43925147056157],[-2.289910832581896,53.44131754362253],[-2.291522689307804,53.443186038523784],[-2.293259765944358,53.44360957846124],[-2.293113282154226,53.444404587096514],[-2.293295702755129,53.444531102398614],[-2.292782140510286,53.44441747577554],[-2.291750880996627,53.44538233252627],[-2.290344569972499,53.44506111859338],[-2.290016616197637,53.445311838774856],[-2.289593880899748,53.4451401198519],[-2.28615064159904,53.44916910409325],[-2.284518445530878,53.44897244533435],[-2.283085327683112,53.44899299098264],[-2.281412608545239,53.44928204754702],[-2.279751564402791,53.449202248700665],[-2.279591896907579,53.45010877073493],[-2.27744699031929,53.450448874135695],[-2.275914584441143,53.44590340616839],[-2.275306672650047,53.44480905400394],[-2.274360900455507,53.44362755674217],[-2.273214747567108,53.4425911646181],[-2.271214421287633,53.441202507586674],[-2.269671965563061,53.440407709049595],[-2.26668569152524,53.439220628130975]]]},"properties":{"year":null,"ward_code":"00BNFN","ward_name":"Chorlton","total_population":13472.69,"pct_male":48.66,"pct_female":51.34,"chinese_ethnic_count":38.28,"pct_chinese_ethnic":0.28,"china_born_count":38.28,"pct_china_born":0.28,"total_hh":5519.43,"pct_owner_occ":61.48,"pct_social_rent":0.07,"pct_private_rent":null,"pct_no_car":47.59,"pct_overcrowd":0.77,"pct_no_bath_wc":1.45,"emp_rate":26.13,"unemployment_rate":null,"self_employment_rate":null,"interp_coverage":1.0,"interp_uncertainty":"low"}},{"type":"Feature","geometry":{"type":"Polygon","coordinates":[[[-2.219099716646465,53.44104075686718],[-2.220820623618332,53.43905196308784],[-2.22163118940166,53.43833418615364],[-2.224528077068364,53.4363844379859],[-2.22724958997565,53.43529167514913],[-2.228788234647372,53.433372492791975],[-2.228910144464594,53.433125078788464],[-2.228610080429622,53.431904056406076],[-2.228696392254419,53.43089801322325],[-2.227865657423017,53.4297347487612],[-2.227821537168631,53.42904721053081],[-2.229331962035159,53.42621292984283],[-2.230182394717162,53.42511384936574],[-2.231929302474073,53.4237062818674],[-2.232340857857166,53.423032188923365],[-2.232450861357952,53.42250698156523],[-2.2341376178983,53.42276351062047],[-2.2360008548479,53.42499264769252],[-2.236474076768935,53.425356595436526],[-2.236361830390074,53.4254674899391],[-2.237436952482887,53.426912504965955],[-2.238122554061977,53.42757179305169],[-2.240109534893421,53.42898435619228],[-2.240285987384954,53.428833161558096],[-2.242031467652712,53.429851518390684],[-2.244446814707881,53.43087746257878],[-2.266717986598469,53.43911746835696],[-2.26668569152524,53.439220628130975],[-2.26419540204373,53.438712983891236],[-2.262698654528663,53.438657012522214],[-2.25811893788719,53.43901755860245],[-2.255477009138009,53.439324360451025],[-2.249968307723401,53.4405270094294],[-2.247296337505019,53.44079155603343],[-2.225183744050126,53.441438402497155],[-2.222347089225096,53.44138080170879],[-2.219099716646465,53.44104075686718]]]},"properties":{"year":null,"ward_code":"00BNGE","ward_name":"Old Moat","total_population":14027.75,"pct_male":46.63,"pct_female":50.48,"chinese_ethnic_count":72.98,"pct_chinese_ethnic":0.52,"china_born_count":72.98,"pct_china_born":0.52,"total_hh":5588.14,"pct_owner_occ":34.58,"pct_social_rent":0.0,"pct_private_rent":null,"pct_no_car":53.08,"pct_overcrowd":1.56,"pct_no_bath_wc":0.38,"emp_rate":22.98,"unemployment_rate":null,"self_employment_rate":null,"interp_coverage":1.0,"interp_uncertainty":"low"}},{"type":"Feature","geometry":{"type":"Polygon","coordinates":[[[-2.252021391188217,53.448799428295594],[-2.257210571188813,53.44866869397143],[-2.257029040656698,53.44323469131372],[-2.25809461756933,53.43997124493471],[-2.25811893788719,53.43901755860245],[-2.262698654528663,53.438657012522214],[-2.264009028467101,53.438699065306615],[-2.26668569152524,53.439220628130975],[-2.269671965563061,53.440407709049595],[-2.271362240912839,53.44129177494405],[-2.273512734076033,53.442839355736986],[-2.274746301978822,53.444076932658355],[-2.275784824203433,53.44562871091298],[-2.276414721054526,53.447134512793376],[-2.27744699031929,53.450448874135695],[-2.271651036825613,53.45069064528351],[-2.258179075045991,53.45884888836811],[-2.258455911644043,53.45734620670394],[-2.258367090629587,53.45509101478205],[-2.257435567395362,53.4532686395969],[-2.252498490598164,53.45514030759849],[-2.252021391188217,53.448799428295594]]]},"properties":{"year":null,"ward_code":"00BNGH","ward_name":"Whalley Range","total_population":12425.83,"pct_male":49.34,"pct_female":47.54,"chinese_ethnic_count":105.8,"pct_chinese_ethnic":0.85,"china_born_count":105.8,"pct_china_born":0.85,"total_hh":4811.45,"pct_owner_occ":58.61,"pct_social_rent":0.0,"pct_private_rent":null,"pct_no_car":45.21,"pct_overcrowd":1.86,"pct_no_bath_wc":0.37,"emp_rate":23.72,"unemployment_rate":null,"self_employment_rate":null,"interp_coverage":1.0,"interp_uncertainty":"low"}},{"type":"Feature","geometry":{"type":"Polygon","coordinates":[[[-2.226790213748953,53.45782842753479],[-2.225668947655035,53.456279191773255],[-2.229922599426017,53.456148887005696],[-2.230039308440928,53.45153755944965],[-2.229587072087414,53.449529506874434],[-2.235341098011982,53.44770458693985],[-2.237184226530839,53.44991912976446],[-2.238515167698922,53.45070652212911],[-2.238698379917831,53.45032789892345],[-2.244770930022131,53.45026616335453],[-2.244633772838116,53.448999905754505],[-2.252021391188217,53.448799428295594],[-2.252498490598164,53.45514030759849],[-2.257435567395362,53.4532686395969],[-2.258367090629587,53.45509101478205],[-2.258455911644043,53.45734620670394],[-2.258179075045991,53.45884888836811],[-2.255493781788844,53.45966363402015],[-2.250659448241565,53.46042161101832],[-2.243644172593092,53.458904467992305],[-2.240905005689485,53.45784121601486],[-2.238168193370443,53.45807956594954],[-2.230592156681406,53.45768827969872],[-2.226790213748953,53.45782842753479]]]},"properties":{"year":null,"ward_code":"00BNGA","ward_name":"Moss Side","total_population":15002.61,"pct_male":49.63,"pct_female":50.37,"chinese_ethnic_count":69.06,"pct_chinese_ethnic":0.46,"china_born_count":69.06,"pct_china_born":0.46,"total_hh":5291.68,"pct_owner_occ":36.01,"pct_social_rent":0.21,"pct_private_rent":null,"pct_no_car":72.44,"pct_overcrowd":2.67,"pct_no_bath_wc":10.23,"emp_rate":18.93,"unemployment_rate":null,"self_employment_rate":null,"interp_coverage":1.0,"interp_uncertainty":"low"}},{"type":"Feature","geometry":{"type":"Polygon","coordinates":[[[-2.2341376178983,53.42276351062047],[-2.23057863915891,53.42238505916128],[-2.227681075959234,53.421164532470534],[-2.225327888711648,53.420867035668095],[-2.221718694249637,53.42154344532315],[-2.219957563751342,53.421704853128915],[-2.218662617237829,53.42162802173124],[-2.219335068629388,53.41980211447655],[-2.21992608099266,53.41715585633994],[-2.220646162223084,53.41584023881524],[-2.214357334910607,53.414655386661984],[-2.214687323976366,53.41296409777081],[-2.215121866555752,53.411781319432045],[-2.215077161253332,53.41149461299931],[-2.215407991737578,53.41137182916529],[-2.214615196715405,53.41104780394524],[-2.215518347882704,53.41088399607471],[-2.215041103350739,53.40975370600169],[-2.212691757008708,53.4069661566474],[-2.215679148800479,53.405970051493256],[-2.219333317257033,53.405137288895304],[-2.219502032280496,53.40494652788707],[-2.219336691123022,53.4040561232355],[-2.219886414699751,53.40273800386053],[-2.222567739496683,53.40117997084583],[-2.225176075949661,53.401318901586954],[-2.227718802091737,53.40087531438377],[-2.229180375618807,53.400852007890244],[-2.236203868313407,53.40106554231103],[-2.239879166558809,53.40070513080958],[-2.240987674977639,53.400997553865935],[-2.243070219374792,53.401978695167124],[-2.244550488327607,53.4030767711839],[-2.244794076957254,53.40358749687117],[-2.244666809788089,53.404180165153235],[-2.244123619467034,53.40470177193625],[-2.241133335876272,53.406221583481695],[-2.239134505288002,53.406869134640736],[-2.23835261182736,53.407428829470796],[-2.238214059550119,53.40795241632269],[-2.238818302624666,53.41050283095695],[-2.239130326928236,53.41114854026183],[-2.239544337231259,53.41153871701809],[-2.242604963714437,53.412635592415455],[-2.243461072373877,53.412717276056384],[-2.24431470408078,53.41253042356735],[-2.245491206533658,53.411020741785904],[-2.246656848144939,53.40992426027472],[-2.246720893296164,53.40953761201488],[-2.246533095377828,53.40909222716298],[-2.244997852817214,53.40812546910517],[-2.244850492739288,53.40784262914935],[-2.244900992033746,53.407468656245285],[-2.24520421766947,53.40714641688474],[-2.246184165847287,53.406712661928545],[-2.247299023764794,53.40676962250784],[-2.248565379655573,53.407492537709416],[-2.252074407124728,53.40843178140655],[-2.253355106125459,53.40909422605805],[-2.2537153347721,53.40943389973651],[-2.253980316768243,53.4105111218007],[-2.253869402195457,53.4120925077677],[-2.249388191627908,53.414186463303395],[-2.247395035344861,53.41552990996103],[-2.242349911342485,53.4207724459503],[-2.236474076768935,53.425356595436526],[-2.2360008548479,53.42499264769252],[-2.2341376178983,53.42276351062047]]]},"properties":{"year":null,"ward_code":"00BNFQ","ward_name":"Didsbury","total_population":12587.96,"pct_male":45.9,"pct_female":53.93,"chinese_ethnic_count":43.9,"pct_chinese_ethnic":0.35,"china_born_count":43.9,"pct_china_born":0.35,"total_hh":5079.39,"pct_owner_occ":70.26,"pct_social_rent":0.02,"pct_private_rent":null,"pct_no_car":35.92,"pct_overcrowd":0.46,"pct_no_bath_wc":0.96,"emp_rate":25.49,"unemployment_rate":null,"self_employment_rate":null,"interp_coverage":0.99,"interp_uncertainty":"low"}},{"type":"Feature","geometry":{"type":"Polygon","coordinates":[[[-2.191353889134814,53.43511195787761],[-2.193084547726039,53.4294390952255],[-2.193184611083466,53.42765302278065],[-2.194561848275285,53.42769938288225],[-2.196853050263687,53.428084660145345],[-2.199581101988543,53.42674448839746],[-2.199951512802296,53.42580456439939],[-2.201013327829652,53.42439522767833],[-2.201258138989898,53.42435605575599],[-2.20215526892366,53.42343518031974],[-2.20453037919847,53.42213760585459],[-2.204959748975629,53.42234193531305],[-2.205351036330326,53.422107980281204],[-2.20525079669751,53.422042848535554],[-2.205632054752845,53.42173040664245],[-2.205616203335899,53.42156217998685],[-2.206810885143627,53.420946365061454],[-2.206677738588886,53.42073621388571],[-2.207204289486974,53.42042715075315],[-2.207564114023346,53.4204269117769],[-2.207757945703826,53.42008546416621],[-2.206283276609792,53.4200884191844],[-2.206161262044031,53.41966238043885],[-2.206505096872189,53.41900675465472],[-2.207180219014422,53.41886262327092],[-2.208442337473893,53.41916341069895],[-2.208831074059769,53.41876480256647],[-2.209095041882398,53.4187064821134],[-2.209708174913352,53.41794165375029],[-2.213487796340753,53.41892481359476],[-2.214357334910607,53.414655386661984],[-2.220646162223084,53.41584023881524],[-2.21992608099266,53.41715585633994],[-2.219052321815541,53.420689124878926],[-2.215652477808472,53.43040799652636],[-2.211176863387904,53.42955956509561],[-2.207525969521646,53.43635230101151],[-2.206238184196314,53.436577562045514],[-2.203171441618372,53.43613593028459],[-2.200575971782314,53.43606672490568],[-2.199640461174504,53.43618767306462],[-2.196066789229546,53.43586102286536],[-2.191353889134814,53.43511195787761]]]},"properties":{"year":null,"ward_code":"00BNFJ","ward_name":"Burnage","total_population":13717.99,"pct_male":46.32,"pct_female":53.68,"chinese_ethnic_count":21.1,"pct_chinese_ethnic":0.15,"china_born_count":21.1,"pct_china_born":0.15,"total_hh":5062.69,"pct_owner_occ":29.48,"pct_social_rent":0.04,"pct_private_rent":null,"pct_no_car":56.82,"pct_overcrowd":0.89,"pct_no_bath_wc":0.3,"emp_rate":22.0,"unemployment_rate":null,"self_employment_rate":null,"interp_coverage":0.99,"interp_uncertainty":"low"}},{"type":"Feature","geometry":{"type":"Polygon","coordinates":[[[-2.214318432209863,53.44073371675266],[-2.205186125950039,53.44062139937215],[-2.211176863387904,53.42955956509561],[-2.215652477808472,53.43040799652636],[-2.218662617237829,53.42162802173124],[-2.219957563751342,53.421704853128915],[-2.221718694249637,53.42154344532315],[-2.225327888711648,53.420867035668095],[-2.227681075959234,53.421164532470534],[-2.23057863915891,53.42238505916128],[-2.232450861357952,53.42250698156523],[-2.232029731357825,53.42358024585359],[-2.230020849627613,53.42529561379544],[-2.229030551451669,53.42665928045468],[-2.228107911006937,53.42833741079898],[-2.227821537168631,53.42904721053081],[-2.227805911822568,53.42955424770609],[-2.228676681688902,53.430820808888164],[-2.228610080429622,53.431904056406076],[-2.228910144464594,53.433125078788464],[-2.22724958997565,53.43529167514913],[-2.224528077068364,53.4363844379859],[-2.22163118940166,53.43833418615364],[-2.220820623618332,53.43905196308784],[-2.219099716646465,53.44104075686718],[-2.214318432209863,53.44073371675266]]]},"properties":{"year":null,"ward_code":"00BNGJ","ward_name":"Withington","total_population":12419.62,"pct_male":48.0,"pct_female":52.0,"chinese_ethnic_count":89.32,"pct_chinese_ethnic":0.72,"china_born_count":89.32,"pct_china_born":0.72,"total_hh":5000.19,"pct_owner_occ":55.76,"pct_social_rent":0.04,"pct_private_rent":null,"pct_no_car":47.06,"pct_overcrowd":1.22,"pct_no_bath_wc":0.6,"emp_rate":24.51,"unemployment_rate":null,"self_employment_rate":null,"interp_coverage":1.0,"interp_uncertainty":"low"}},{"type":"Feature","geometry":{"type":"Polygon","coordinates":[[[-2.220140710962281,53.459202631851205],[-2.218351389908488,53.457750061264626],[-2.216935846674676,53.4568509888827],[-2.211463094625569,53.45384151638328],[-2.204969439105106,53.45530195835954],[-2.200426158038927,53.44799922518746],[-2.197370882876424,53.44826582861642],[-2.198171781463967,53.44535138210638],[-2.202870314327794,53.44302613668865],[-2.203859488664443,53.44209414204243],[-2.204540254977318,53.440628693594576],[-2.214318432209863,53.44073371675266],[-2.214203705639721,53.44214708603194],[-2.21465616954696,53.44436278130205],[-2.215037200843561,53.445281736041366],[-2.218073400492412,53.44520965172951],[-2.217938410307607,53.44585988272996],[-2.2182238672557,53.44666017505885],[-2.219941082625733,53.4482704591656],[-2.220636003413933,53.44962110228667],[-2.222077571361388,53.45142770261534],[-2.223785333920564,53.45087278367164],[-2.229587072087414,53.449529506874434],[-2.230039308440928,53.45153755944965],[-2.229922599426017,53.456148887005696],[-2.225668947655035,53.456279191773255],[-2.227672155654056,53.4592295072139],[-2.222228837234577,53.459048770158454],[-2.220140710962281,53.459202631851205]]]},"properties":{"year":null,"ward_code":"00BNGF","ward_name":"Rusholme","total_population":11439.96,"pct_male":49.97,"pct_female":50.03,"chinese_ethnic_count":49.62,"pct_chinese_ethnic":0.43,"china_born_count":49.62,"pct_china_born":0.43,"total_hh":4080.43,"pct_owner_occ":40.79,"pct_social_rent":0.13,"pct_private_rent":null,"pct_no_car":61.18,"pct_overcrowd":2.21,"pct_no_bath_wc":2.78,"emp_rate":22.55,"unemployment_rate":null,"self_employment_rate":null,"interp_coverage":1.0,"interp_uncertainty":"low"}},{"type":"Feature","geometry":{"type":"Polygon","coordinates":[[[-2.173994663097857,53.443656838573816],[-2.17425713137074,53.44203599586364],[-2.174141399170098,53.44054407626283],[-2.174717112810584,53.43822784502875],[-2.174971351331198,53.435535416991],[-2.175333751979733,53.43444278329938],[-2.175634642036966,53.43418377507602],[-2.175956391141886,53.434295804325366],[-2.176204961721108,53.43355612503707],[-2.176791719639867,53.43304207422415],[-2.177204414811083,53.433087805194845],[-2.178362872158567,53.43386190421151],[-2.179091969453783,53.43398327421055],[-2.179040365166354,53.43423924802469],[-2.179256840240172,53.434151003983246],[-2.180141102041394,53.43436539168056],[-2.179877738273539,53.434544158123074],[-2.180180191120267,53.434711393728115],[-2.181075664670552,53.43468082348954],[-2.18136901105406,53.43497391029718],[-2.181795274325172,53.435105277856174],[-2.182922399586975,53.43502012753214],[-2.183250352375973,53.435260351909655],[-2.183799455282649,53.435192095252994],[-2.184198538967861,53.43556197799918],[-2.185237645647028,53.43567524709425],[-2.185731532149125,53.43610312063744],[-2.186582919109665,53.43599224316232],[-2.186767249033545,53.436191668321776],[-2.187523841567124,53.43634329018415],[-2.187326000021733,53.43649275572771],[-2.187463465125523,53.43662651670264],[-2.188438623321107,53.43663200315096],[-2.188728688354166,53.43680682094798],[-2.187220720460396,53.435231433769445],[-2.189081202525146,53.434836094907226],[-2.196066789229546,53.43586102286536],[-2.199640461174504,53.43618767306462],[-2.200575971782314,53.43606672490568],[-2.203171441618372,53.43613593028459],[-2.206238184196314,53.436577562045514],[-2.207525969521646,53.43635230101151],[-2.205186125950039,53.44062139937215],[-2.204540254977318,53.440628693594576],[-2.203554028294809,53.44245953778522],[-2.202223389613196,53.44341290142033],[-2.198171781463967,53.44535138210638],[-2.197370882876424,53.44826582861642],[-2.194836506750149,53.448545826174865],[-2.193720325957519,53.448426304371466],[-2.192052600403887,53.44859443716226],[-2.1914493071286,53.4473226928281],[-2.191443341887676,53.445997745037936],[-2.185547661413145,53.44743819691165],[-2.181811225277282,53.44797061505587],[-2.179402989626778,53.448059657562155],[-2.179835176607289,53.44711605276998],[-2.179880482398338,53.446035684793344],[-2.181161187843019,53.445594153098085],[-2.182572252658995,53.44319656512449],[-2.177596942232527,53.44328300195599],[-2.177463446260473,53.44297506147266],[-2.177118620741475,53.44298007481648],[-2.176952600855655,53.44254241161189],[-2.173994663097857,53.443656838573816]]]},"properties":{"year":null,"ward_code":"00BNFX","ward_name":"Levenshulme","total_population":13524.91,"pct_male":48.02,"pct_female":51.98,"chinese_ethnic_count":50.85,"pct_chinese_ethnic":0.38,"china_born_count":50.85,"pct_china_born":0.38,"total_hh":5084.75,"pct_owner_occ":67.59,"pct_social_rent":0.26,"pct_private_rent":null,"pct_no_car":51.56,"pct_overcrowd":0.85,"pct_no_bath_wc":5.22,"emp_rate":23.72,"unemployment_rate":null,"self_employment_rate":null,"interp_coverage":0.97,"interp_uncertainty":"low"}},{"type":"Feature","geometry":{"type":"Polygon","coordinates":[[[-2.238362925249638,53.47157370127401],[-2.233398755396235,53.46578762706211],[-2.229444706082397,53.462213385025],[-2.228141453965894,53.4603822300248],[-2.227672155654056,53.4592295072139],[-2.226790213748953,53.45782842753479],[-2.230592156681406,53.45768827969872],[-2.238168193370443,53.45807956594954],[-2.240905005689485,53.45784121601486],[-2.243644172593092,53.458904467992305],[-2.250659448241565,53.46042161101832],[-2.253603848688819,53.45993451290549],[-2.253834283124556,53.46013991220173],[-2.25386237877364,53.46046465999526],[-2.253217400846121,53.46064008164194],[-2.253449439284792,53.46119182361553],[-2.253039559047779,53.461284827368374],[-2.253226081481731,53.4620198024063],[-2.253638051740016,53.46259137450657],[-2.253825026383441,53.462689011131395],[-2.254361466339739,53.46243086006068],[-2.255900845748982,53.46215791413618],[-2.257710208920362,53.46255765395362],[-2.25808514890536,53.462757965155625],[-2.258088141682534,53.46301974487865],[-2.258464752092559,53.46302959772242],[-2.258447711803476,53.46370996388622],[-2.259030182221732,53.46413115625439],[-2.260096728348401,53.46582694014088],[-2.260714018659547,53.46591985390081],[-2.262717999483864,53.46741248797347],[-2.262980388304923,53.46740117814879],[-2.263545235325036,53.46778829478525],[-2.263987107408429,53.46761063916666],[-2.264530133538464,53.46780718490304],[-2.265126975069545,53.46842645445298],[-2.264510639565497,53.46868275968243],[-2.265752378903727,53.46972041755191],[-2.266550540259661,53.46960572100466],[-2.267932302198394,53.46983801626161],[-2.266813562530583,53.47070819270371],[-2.26512170503234,53.47245827465302],[-2.26534682051219,53.47269875885658],[-2.264964849604324,53.47282544699022],[-2.264034247146559,53.47361119085834],[-2.263332957387435,53.4756963761382],[-2.261860425648056,53.475579951206626],[-2.25927103156866,53.47298260106772],[-2.258213091878395,53.47266411845999],[-2.256873485594894,53.47161788630713],[-2.255185962540871,53.47110916289901],[-2.244091748986436,53.47023632469515],[-2.242089568449052,53.470484773298075],[-2.238362925249638,53.47157370127401]]]},"properties":{"year":null,"ward_code":"00BNFW","ward_name":"Hulme","total_population":12384.9,"pct_male":54.59,"pct_female":42.33,"chinese_ethnic_count":863.63,"pct_chinese_ethnic":6.97,"china_born_count":863.63,"pct_china_born":6.97,"total_hh":5015.13,"pct_owner_occ":2.55,"pct_social_rent":0.09,"pct_private_rent":null,"pct_no_car":83.04,"pct_overcrowd":1.58,"pct_no_bath_wc":0.41,"emp_rate":15.02,"unemployment_rate":null,"self_employment_rate":null,"interp_coverage":0.99,"interp_uncertainty":"low"}},{"type":"Feature","geometry":{"type":"Polygon","coordinates":[[[-2.207794680920029,53.467380122032885],[-2.182474289561627,53.46279415173171],[-2.182648666711022,53.46240653543799],[-2.182277345484271,53.46220036773133],[-2.182385522761631,53.462070708547664],[-2.181201387258761,53.46021751643637],[-2.181146221568583,53.45930948592771],[-2.184200408345445,53.45934356895191],[-2.1849842261422,53.4591735420493],[-2.184965746558217,53.45838595766976],[-2.188474735687598,53.457626559230825],[-2.190508053512155,53.45735620567479],[-2.190106684065841,53.45579368576198],[-2.189381554466074,53.45464627756819],[-2.195515776587861,53.45321704345604],[-2.19257177370786,53.44977755770712],[-2.192052600403887,53.44859443716226],[-2.193720325957519,53.448426304371466],[-2.194836506750149,53.448545826174865],[-2.200426158038927,53.44799922518746],[-2.204969439105106,53.45530195835954],[-2.211463094625569,53.45384151638328],[-2.216935846674676,53.4568509888827],[-2.218351389908488,53.457750061264626],[-2.220140710962281,53.459202631851205],[-2.214399430158029,53.46006810888167],[-2.213017183463328,53.459801775168344],[-2.21168234328989,53.45978869641811],[-2.209191769684636,53.460195891803366],[-2.207271164326728,53.45974167424596],[-2.204420196422258,53.45979434328697],[-2.207951817072811,53.46158958746093],[-2.213547954101839,53.464739995899826],[-2.211392727544405,53.46600025191426],[-2.207818893668632,53.466171127100495],[-2.206662133382605,53.4665163878636],[-2.207794680920029,53.467380122032885]]]},"properties":{"year":null,"ward_code":"00BNFZ","ward_name":"Longsight","total_population":15976.25,"pct_male":50.06,"pct_female":49.94,"chinese_ethnic_count":74.44,"pct_chinese_ethnic":0.47,"china_born_count":74.44,"pct_china_born":0.47,"total_hh":5552.8,"pct_owner_occ":40.26,"pct_social_rent":0.7,"pct_private_rent":null,"pct_no_car":66.27,"pct_overcrowd":3.06,"pct_no_bath_wc":7.13,"emp_rate":19.82,"unemployment_rate":null,"self_employment_rate":null,"interp_coverage":1.0,"interp_uncertainty":"low"}},{"type":"Feature","geometry":{"type":"Polygon","coordinates":[[[-2.219284482714708,53.47541603972949],[-2.209730273769177,53.474990810328464],[-2.208656592005839,53.474470520315926],[-2.199452177211067,53.47177005544682],[-2.194106914286005,53.47177605227312],[-2.194309028824144,53.47077969226753],[-2.193830538236871,53.4703274034076],[-2.193190967825565,53.46912960400308],[-2.189787877709558,53.4653374330737],[-2.18793444853545,53.463798000800615],[-2.207794680920029,53.467380122032885],[-2.206662133382605,53.4665163878636],[-2.207818893668632,53.466171127100495],[-2.211392727544405,53.46600025191426],[-2.213547954101839,53.464739995899826],[-2.207951817072811,53.46158958746093],[-2.204420196422258,53.45979434328697],[-2.207271164326728,53.45974167424596],[-2.209191769684636,53.460195891803366],[-2.21168234328989,53.45978869641811],[-2.213017183463328,53.459801775168344],[-2.214399430158029,53.46006810888167],[-2.221201844924379,53.459077637155396],[-2.227672155654056,53.4592295072139],[-2.228141453965894,53.4603822300248],[-2.229444706082397,53.462213385025],[-2.233398755396235,53.46578762706211],[-2.238362925249638,53.47157370127401],[-2.234649304347479,53.472155474131604],[-2.230456814837391,53.47387145168242],[-2.229074534249177,53.47396119311021],[-2.224943908594767,53.47349714045244],[-2.222423352862836,53.47350468020794],[-2.221193282147817,53.47389234528472],[-2.220401385658498,53.47462019531512],[-2.219367551867473,53.475183877204344],[-2.219284482714708,53.47541603972949]]]},"properties":{"year":null,"ward_code":"00BNFA","ward_name":"Ardwick","total_population":12796.26,"pct_male":47.96,"pct_female":49.2,"chinese_ethnic_count":85.83,"pct_chinese_ethnic":0.67,"china_born_count":85.83,"pct_china_born":0.67,"total_hh":4747.86,"pct_owner_occ":3.83,"pct_social_rent":0.15,"pct_private_rent":null,"pct_no_car":80.35,"pct_overcrowd":1.82,"pct_no_bath_wc":1.4,"emp_rate":16.22,"unemployment_rate":null,"self_employment_rate":null,"interp_coverage":1.0,"interp_uncertainty":"low"}},{"type":"Feature","geometry":{"type":"Polygon","coordinates":[[[-2.166193946074475,53.45286319723096],[-2.167503787739352,53.44936587153709],[-2.170132555775853,53.448836415658704],[-2.172619554272567,53.44808398758962],[-2.172797854704873,53.447944957430586],[-2.172013818970624,53.44722562097406],[-2.173102677769362,53.445629423599435],[-2.17337845223164,53.445646161372],[-2.174024089575567,53.44394976618248],[-2.173994663097857,53.443656838573816],[-2.176952600855655,53.44254241161189],[-2.177118620741475,53.44298007481648],[-2.177463446260473,53.44297506147266],[-2.177596942232527,53.44328300195599],[-2.182572252658995,53.44319656512449],[-2.181161187843019,53.445594153098085],[-2.179880482398338,53.446035684793344],[-2.179835176607289,53.44711605276998],[-2.179402989626778,53.448059657562155],[-2.181811225277282,53.44797061505587],[-2.185547661413145,53.44743819691165],[-2.191443341887676,53.445997745037936],[-2.1914493071286,53.4473226928281],[-2.192468410552362,53.449601325607176],[-2.195515776587861,53.45321704345604],[-2.189381554466074,53.45464627756819],[-2.190106684065841,53.45579368576198],[-2.190508053512155,53.45735620567479],[-2.188474735687598,53.457626559230825],[-2.184965746558217,53.45838595766976],[-2.1849842261422,53.4591735420493],[-2.184200408345445,53.45934356895191],[-2.181146221568583,53.45930948592771],[-2.181201387258761,53.46021751643637],[-2.182385522761631,53.462070708547664],[-2.182277345484271,53.46220036773133],[-2.182648666711022,53.46240653543799],[-2.182474289561627,53.46279415173171],[-2.166932339515485,53.459823740002975],[-2.164103593169586,53.45943048491806],[-2.166386736261359,53.452822761309584],[-2.166193946074475,53.45286319723096]]]},"properties":{"year":null,"ward_code":"00BNFT","ward_name":"Gorton South","total_population":13560.25,"pct_male":48.56,"pct_female":51.44,"chinese_ethnic_count":33.03,"pct_chinese_ethnic":0.24,"china_born_count":33.03,"pct_china_born":0.24,"total_hh":5123.95,"pct_owner_occ":42.81,"pct_social_rent":0.3,"pct_private_rent":null,"pct_no_car":65.86,"pct_overcrowd":0.94,"pct_no_bath_wc":10.88,"emp_rate":22.88,"unemployment_rate":null,"self_employment_rate":null,"interp_coverage":0.95,"interp_uncertainty":"low"}},{"type":"Feature","geometry":{"type":"Polygon","coordinates":[[[-2.149895169367338,53.470896841226356],[-2.149419939872381,53.47016769304462],[-2.147848785005002,53.46902727343887],[-2.147605121853583,53.468672523775524],[-2.147554196882092,53.468244794669666],[-2.146848522510817,53.46769371806781],[-2.146864277711148,53.467481348891305],[-2.147049876503031,53.467112593810626],[-2.147926518611999,53.466610121015265],[-2.147689030008371,53.466408171662295],[-2.147851096819391,53.465769789273395],[-2.148258995617736,53.465707209949585],[-2.149145713395968,53.465138988421444],[-2.149498241317901,53.46437808767649],[-2.149712398071926,53.46432397456864],[-2.149755985975369,53.46386888301266],[-2.149973771539188,53.46369445687383],[-2.152784040030135,53.463230515264655],[-2.152752835170896,53.46292944002311],[-2.152321833367269,53.46244545474327],[-2.151975676242245,53.46251976912421],[-2.151893286408131,53.46211904977902],[-2.151196229087589,53.46185730282428],[-2.150174320355668,53.4607737963579],[-2.148979090911873,53.46058007411828],[-2.149324369708535,53.46025886688478],[-2.150737882870138,53.460161310109974],[-2.15012815227847,53.45967170698555],[-2.149237468244861,53.45942593124842],[-2.149314735855356,53.45912379874711],[-2.15048770509826,53.45784217681202],[-2.150824224650398,53.45796492240073],[-2.151315611792154,53.45771542764234],[-2.152068687457644,53.45773497690633],[-2.153702222645553,53.45681886902238],[-2.158230362482622,53.455002610075844],[-2.158523381901144,53.454832283754754],[-2.158453319155912,53.45472282836483],[-2.160438618451932,53.45424917696931],[-2.160108382333967,53.45384143241489],[-2.159999270339478,53.45335844985771],[-2.161778582960449,53.453078018432],[-2.161424035842123,53.451832414181645],[-2.165957888559376,53.453745105171116],[-2.166193946074475,53.45286319723096],[-2.166386736261359,53.452822761309584],[-2.164103593169586,53.45943048491806],[-2.166932339515485,53.459823740002975],[-2.18793444853545,53.463798000800615],[-2.189787877709558,53.4653374330737],[-2.191425211384597,53.46705077421439],[-2.193313619157839,53.46928922694685],[-2.193830538236871,53.4703274034076],[-2.194315127065723,53.470878562928],[-2.194106914286005,53.47177605227312],[-2.192425016103986,53.47161895446074],[-2.18981258417057,53.47128944035],[-2.17739612511055,53.46912350692393],[-2.174036814481873,53.46878043429465],[-2.171535909458571,53.4687124288242],[-2.167416766291439,53.4689348449087],[-2.15790455185569,53.4702851261392],[-2.149895169367338,53.470896841226356]]]},"properties":{"year":null,"ward_code":"00BNFS","ward_name":"Gorton North","total_population":13921.86,"pct_male":48.23,"pct_female":51.77,"chinese_ethnic_count":21.48,"pct_chinese_ethnic":0.15,"china_born_count":21.48,"pct_china_born":0.15,"total_hh":5356.8,"pct_owner_occ":56.89,"pct_social_rent":0.26,"pct_private_rent":null,"pct_no_car":61.46,"pct_overcrowd":0.41,"pct_no_bath_wc":9.93,"emp_rate":23.49,"unemployment_rate":null,"self_employment_rate":null,"interp_coverage":0.98,"interp_uncertainty":"low"}},{"type":"Feature","geometry":{"type":"Polygon","coordinates":[[[-2.166005818528807,53.47866597413298],[-2.165884635792482,53.47778078413616],[-2.165527053804782,53.47760600564444],[-2.165456393727381,53.47723477047408],[-2.165136472692596,53.47718127719698],[-2.165030005416889,53.47692076229049],[-2.162222408916711,53.47631508435028],[-2.161768869151792,53.47517079272558],[-2.161498435865293,53.47487538285873],[-2.158691530767548,53.475284473444404],[-2.155890565719738,53.47530485319553],[-2.155440586531727,53.47479719491566],[-2.155445982476442,53.47447163616792],[-2.154763590874866,53.47442225009365],[-2.153049200305579,53.473593867545944],[-2.150486650782773,53.472808955283895],[-2.150470604221177,53.47253398227519],[-2.150143060609437,53.47230322279162],[-2.150155633279303,53.47106842016493],[-2.149895169367338,53.470896841226356],[-2.160328951338459,53.470022067875284],[-2.168144263876593,53.468862756380844],[-2.170960667875647,53.46871859284729],[-2.174036814481873,53.46878043429465],[-2.178927559426671,53.4693610999462],[-2.191508433626104,53.47152128132364],[-2.194107006887586,53.47177606132671],[-2.198716582481377,53.471719877102835],[-2.200172588431067,53.47189440366221],[-2.209055156219252,53.47461897671389],[-2.210080321419168,53.47532557678686],[-2.210411030174865,53.476124966619125],[-2.210275798400422,53.47686310417135],[-2.209750753507434,53.47790134827253],[-2.208800738868942,53.47898865593745],[-2.204142892499668,53.47917563295821],[-2.198047842315282,53.4788426596986],[-2.197422908187803,53.478921783241695],[-2.196705232529303,53.479108910921354],[-2.197801283230228,53.4815098306719],[-2.196762463818935,53.481401152835744],[-2.195745973159506,53.48153934046357],[-2.188798604762631,53.48306789464001],[-2.183945990800936,53.48124435802138],[-2.168158586839937,53.479260697118626],[-2.166005818528807,53.47866597413298]]]},"properties":{"year":null,"ward_code":"00BNFG","ward_name":"Bradford","total_population":13651.09,"pct_male":47.5,"pct_female":49.65,"chinese_ethnic_count":74.72,"pct_chinese_ethnic":0.55,"china_born_count":74.72,"pct_china_born":0.55,"total_hh":5261.75,"pct_owner_occ":33.45,"pct_social_rent":0.57,"pct_private_rent":null,"pct_no_car":72.51,"pct_overcrowd":0.77,"pct_no_bath_wc":10.6,"emp_rate":20.27,"unemployment_rate":null,"self_employment_rate":null,"interp_coverage":0.98,"interp_uncertainty":"low"}},{"type":"Feature","geometry":{"type":"Polygon","coordinates":[[[-2.238476673064395,53.53879253655869],[-2.236939165620268,53.5388169356508],[-2.237010166199991,53.5382758059774],[-2.237892483431468,53.5378316023015],[-2.238751465477671,53.53701396422719],[-2.240320715542492,53.537275131553585],[-2.240703457266941,53.53667129954605],[-2.240716039521765,53.53614713782464],[-2.241481129658791,53.53570516850238],[-2.241676426598489,53.53530844517664],[-2.242661521599226,53.53500617370684],[-2.243010875072977,53.53434397423897],[-2.24281393418725,53.53371153770503],[-2.242254988715206,53.53300708627036],[-2.236845938758717,53.5275313675203],[-2.238195997560807,53.526432942959346],[-2.238571195533766,53.52559010090409],[-2.239386285698591,53.524600583579634],[-2.238761402849569,53.52454510018291],[-2.239460267178798,53.52326200989965],[-2.237018039101569,53.52349159047369],[-2.235889379881708,53.52345085086315],[-2.235438437253354,53.52322057009105],[-2.235081289944392,53.52273786428516],[-2.234224674141525,53.52245108107516],[-2.233532816354335,53.52229233027747],[-2.232822383511912,53.52278638590289],[-2.232050464806556,53.522902773889115],[-2.230748531447334,53.52228594226373],[-2.229613288667223,53.52206622817128],[-2.229193857533425,53.521816203263086],[-2.227373467020485,53.52180283001877],[-2.227116046814285,53.52187775348824],[-2.226997233492993,53.52222487322568],[-2.226459693151208,53.52241740827665],[-2.225309054053436,53.52243592640514],[-2.225188447961754,53.522180831762974],[-2.225540326534195,53.52169478882335],[-2.22547128340488,53.52120870262138],[-2.224619897991881,53.52073364418504],[-2.223217712571459,53.52029134620443],[-2.222263938751158,53.51960579845627],[-2.22212967205019,53.519347062813964],[-2.222160857595521,53.518643101475725],[-2.221121856124894,53.51805179670029],[-2.221194260714249,53.51666380092436],[-2.222626895184618,53.51638165564142],[-2.223047181054847,53.515645784144084],[-2.222524672388956,53.51522346126436],[-2.221100415861367,53.515114598733284],[-2.220290879756343,53.51486244756822],[-2.220493343678876,53.514375019260875],[-2.221725796839042,53.51331379343183],[-2.221723339161166,53.513112402495736],[-2.22126403055697,53.512962417180695],[-2.221192481137594,53.51279794311904],[-2.221988455041846,53.512176273555916],[-2.222336658057516,53.511628173372266],[-2.222825564465428,53.511676697473966],[-2.222887524576119,53.5113611471153],[-2.224086787232506,53.51153950614132],[-2.225154002676656,53.5102737899593],[-2.22634433031155,53.51068865257082],[-2.228551573731262,53.510646812877255],[-2.22952746341628,53.510386802070485],[-2.233358871208901,53.510124053903155],[-2.235148503877367,53.51037502850417],[-2.23693664053675,53.51136639657741],[-2.238113176334039,53.51226654931725],[-2.242850184109725,53.51237948095876],[-2.245184363300551,53.51207781406954],[-2.246890936369967,53.51430622666808],[-2.250236775147033,53.516288514997484],[-2.255004030353931,53.517587084025216],[-2.256927529544244,53.517923404183634],[-2.256665333759955,53.51820991247966],[-2.256745003494428,53.51969198272138],[-2.256259811867091,53.51997082349783],[-2.256504262577564,53.52025427360597],[-2.255633143409551,53.520626349326946],[-2.255434641156112,53.52045796118528],[-2.254175102350803,53.52066906621207],[-2.254392222691929,53.52166350503207],[-2.253468275279313,53.52179945361782],[-2.253479744875217,53.522457551415734],[-2.252876655583343,53.52249843503692],[-2.253075783504194,53.5234811143327],[-2.253480016200743,53.52423724976546],[-2.251457516931783,53.52402383800158],[-2.251454380666614,53.52532379697202],[-2.25196282327265,53.52553198109456],[-2.251707816925439,53.525770711971354],[-2.248747140558613,53.52482245674075],[-2.246533052718504,53.529276304681716],[-2.257091481510915,53.52709064885769],[-2.262297094309669,53.52510076942492],[-2.264086725445337,53.524691504674784],[-2.264546709416184,53.525662920229585],[-2.265808228319055,53.526730862207806],[-2.265909704260806,53.526975843185774],[-2.266159194156376,53.52947321927765],[-2.266050918908951,53.53025095924347],[-2.266225214809957,53.53112890063541],[-2.267143929018061,53.53252988703568],[-2.267471751497879,53.53405071173213],[-2.268271132470522,53.534981184578605],[-2.26782546136554,53.53511056332534],[-2.267993550007203,53.535450848612875],[-2.268474584967279,53.53516836238328],[-2.268322027538921,53.53535044010977],[-2.268705878613906,53.535952639332805],[-2.268719277071915,53.53665280194455],[-2.268541229875189,53.537128805718424],[-2.26788648994861,53.53783136098661],[-2.259440106920998,53.542828439687426],[-2.258194996179706,53.54326623257606],[-2.253104086697362,53.54394142165561],[-2.252021488446264,53.54428779572065],[-2.251672887796075,53.54458795782713],[-2.247939889026553,53.544127523744756],[-2.246444164563909,53.543585975973976],[-2.239378560255668,53.54010190592435],[-2.238830504897272,53.53974458643742],[-2.23887429706307,53.53948186939729],[-2.238742210119212,53.53938972438548],[-2.239037255200674,53.5391984164343],[-2.238476673064395,53.53879253655869]]]},"properties":{"year":null,"ward_code":"00BNFP","ward_name":"Crumpsall","total_population":12570.4,"pct_male":47.19,"pct_female":52.81,"chinese_ethnic_count":25.35,"pct_chinese_ethnic":0.2,"china_born_count":25.35,"pct_china_born":0.2,"total_hh":4890.52,"pct_owner_occ":60.82,"pct_social_rent":0.06,"pct_private_rent":null,"pct_no_car":52.96,"pct_overcrowd":1.37,"pct_no_bath_wc":1.96,"emp_rate":23.93,"unemployment_rate":null,"self_employment_rate":null,"interp_coverage":0.97,"interp_uncertainty":"low"}},{"type":"Feature","geometry":{"type":"Polygon","coordinates":[[[-2.222336658057516,53.511628173372266],[-2.222637260133352,53.51117369324409],[-2.222671693288775,53.51082055859876],[-2.222141337095043,53.51059486703606],[-2.221615009787005,53.50996581298389],[-2.220992921394356,53.50967765239642],[-2.221500036006598,53.509335156667476],[-2.221665557918588,53.50900142980304],[-2.220656139330375,53.50798030586245],[-2.221865896167837,53.50784407965962],[-2.222612988534358,53.50708598039639],[-2.224096888603228,53.506847542077146],[-2.225370082283321,53.50641931648334],[-2.225760417310734,53.50610567526284],[-2.225713168165174,53.50510608460146],[-2.224677975718623,53.504381940647924],[-2.224983149712252,53.50364515436444],[-2.224846269309114,53.503154702532896],[-2.223818561091411,53.50267575365625],[-2.223399109878659,53.50228806906611],[-2.218566078075456,53.50242565999225],[-2.219507620033394,53.499918969476845],[-2.220870935908116,53.497377223850826],[-2.223973756887041,53.49467660551739],[-2.225991580885814,53.49226755422393],[-2.237713925718939,53.48970358567089],[-2.242667917076312,53.488083847581],[-2.244013183254399,53.48778898388632],[-2.245853496795613,53.487021188811354],[-2.248786033498331,53.48828979093138],[-2.249110337490616,53.489300312483046],[-2.250334740130584,53.489916271877185],[-2.250643933484734,53.490272349187975],[-2.250844991696579,53.49114099365419],[-2.250658380910315,53.49208208810457],[-2.250903684287492,53.49238408620156],[-2.251583626942227,53.49290848025264],[-2.253461212867987,53.49347611577715],[-2.252931111717903,53.494155025155905],[-2.252530961942636,53.49530190061658],[-2.253412549798468,53.49581967226977],[-2.254906389498912,53.4973335774964],[-2.254437143646289,53.4974792307778],[-2.254454826023352,53.497678904908334],[-2.255344431919492,53.49880421144027],[-2.255212887371504,53.498871903878566],[-2.255404671383833,53.49907722513686],[-2.254313667459329,53.49951453268626],[-2.254208633374299,53.4998338459366],[-2.254837901989952,53.50036338191269],[-2.254574211857643,53.5003901853705],[-2.254538233119775,53.500782395788235],[-2.253744307360448,53.501360338911105],[-2.252456328325321,53.50279307144544],[-2.252589625595014,53.50314688238511],[-2.251518181931499,53.50388545719899],[-2.248847879664809,53.50318433854617],[-2.247104804590872,53.50239613442908],[-2.24572680320969,53.50484071825528],[-2.245280419380887,53.50480794875898],[-2.245699063846886,53.50652163593984],[-2.248781366873552,53.50711076269327],[-2.248514790637469,53.507725638901064],[-2.250267256707987,53.5080303548513],[-2.249235155877959,53.50904145258269],[-2.249215317194207,53.50951507450692],[-2.248010709063696,53.509407970059],[-2.247754128984371,53.51000180130186],[-2.246574733285693,53.510738483683284],[-2.246365899122046,53.5110476075508],[-2.246678761064199,53.51123832031437],[-2.246174453670327,53.511692977438074],[-2.245184363300551,53.51207781406954],[-2.243611500073854,53.512342816687266],[-2.238113176334039,53.51226654931725],[-2.23693664053675,53.51136639657741],[-2.235148503877367,53.51037502850417],[-2.233358871208901,53.510124053903155],[-2.22952746341628,53.510386802070485],[-2.228551573731262,53.510646812877255],[-2.22634433031155,53.51068865257082],[-2.225154002676656,53.5102737899593],[-2.224086787232506,53.51153950614132],[-2.222887524576119,53.5113611471153],[-2.222825564465428,53.511676697473966],[-2.222336658057516,53.511628173372266]]]},"properties":{"year":null,"ward_code":"00BNFM","ward_name":"Cheetham","total_population":14672.46,"pct_male":50.44,"pct_female":49.56,"chinese_ethnic_count":186.57,"pct_chinese_ethnic":1.27,"china_born_count":186.57,"pct_china_born":1.27,"total_hh":4877.58,"pct_owner_occ":35.91,"pct_social_rent":0.16,"pct_private_rent":null,"pct_no_car":69.09,"pct_overcrowd":2.34,"pct_no_bath_wc":2.56,"emp_rate":19.47,"unemployment_rate":null,"self_employment_rate":null,"interp_coverage":0.98,"interp_uncertainty":"low"}},{"type":"Feature","geometry":{"type":"Polygon","coordinates":[[[-2.202670851836899,53.5180244207019],[-2.202916100374611,53.51727347659432],[-2.203089571453885,53.51727936685189],[-2.204207004019425,53.51385484462936],[-2.204050508031877,53.51296413460589],[-2.203540631134259,53.51168781283982],[-2.207296501607479,53.51124541633449],[-2.207905771802764,53.51037528485916],[-2.207947155498156,53.50987804255317],[-2.20941684796655,53.50978109484234],[-2.209334531716125,53.50961776462873],[-2.20694615760823,53.50839585489787],[-2.206971751911263,53.50746101123387],[-2.207196146351152,53.50709940583398],[-2.207062814587099,53.50690722471314],[-2.204262393986892,53.50744686376061],[-2.202218608329627,53.50640206559127],[-2.201935784420592,53.50657248019484],[-2.201371122225995,53.50633187139466],[-2.200916833521831,53.50661465139057],[-2.195510053265275,53.504651789171206],[-2.193827558209933,53.502689725497866],[-2.212100241852156,53.496745964707486],[-2.217461313212334,53.494521515771766],[-2.22180965473781,53.4964513591569],[-2.220870935908116,53.497377223850826],[-2.22008755812701,53.498651374296784],[-2.218566078075456,53.50242565999225],[-2.223399109878659,53.50228806906611],[-2.223818561091411,53.50267575365625],[-2.224846269309114,53.503154702532896],[-2.224983149712252,53.50364515436444],[-2.224677975718623,53.504381940647924],[-2.2256807998462,53.50504350240308],[-2.225760417310734,53.50610567526284],[-2.225370082283321,53.50641931648334],[-2.224096888603228,53.506847542077146],[-2.222612988534358,53.50708598039639],[-2.221865896167837,53.50784407965962],[-2.22093452027535,53.50787362142745],[-2.220627713374433,53.508042440275354],[-2.221665557918588,53.50900142980304],[-2.221500036006598,53.509335156667476],[-2.220992921394356,53.50967765239642],[-2.221615009787005,53.50996581298389],[-2.222141337095043,53.51059486703606],[-2.222684358603809,53.51089777604571],[-2.22209480699073,53.512056698258576],[-2.221192481137594,53.51279794311904],[-2.22126403055697,53.512962417180695],[-2.221723339161166,53.513112402495736],[-2.221725796839042,53.51331379343183],[-2.220493343678876,53.514375019260875],[-2.220290879756343,53.51486244756822],[-2.221100415861367,53.515114598733284],[-2.222524672388956,53.51522346126436],[-2.223047181054847,53.515645784144084],[-2.222626895184618,53.51638165564142],[-2.221194260714249,53.51666380092436],[-2.221176383378863,53.518117414978384],[-2.220168465314525,53.51860803268935],[-2.219864311996208,53.51903020606186],[-2.219152908688725,53.518809611596836],[-2.219064698199839,53.51894802848903],[-2.215662984123676,53.51855165036496],[-2.215140407918223,53.52015167927272],[-2.21451991594073,53.52001067474556],[-2.21403253728777,53.51963318647196],[-2.21319377004266,53.51844738342301],[-2.213398922133408,53.519318886143786],[-2.214307938761765,53.52050176350301],[-2.21402001601217,53.520512385962306],[-2.211852910414443,53.519957284203834],[-2.210549004926621,53.51981465305296],[-2.208825545843213,53.518983445917605],[-2.205143375492999,53.51852973297062],[-2.204117813668423,53.51813965279452],[-2.202670851836899,53.5180244207019]]]},"properties":{"year":null,"ward_code":"00BNFU","ward_name":"Harpurhey","total_population":12510.3,"pct_male":47.44,"pct_female":52.56,"chinese_ethnic_count":50.93,"pct_chinese_ethnic":0.41,"china_born_count":50.93,"pct_china_born":0.41,"total_hh":4745.63,"pct_owner_occ":29.29,"pct_social_rent":0.15,"pct_private_rent":null,"pct_no_car":72.63,"pct_overcrowd":0.8,"pct_no_bath_wc":6.25,"emp_rate":20.16,"unemployment_rate":null,"self_employment_rate":null,"interp_coverage":1.0,"interp_uncertainty":"low"}},{"type":"Feature","geometry":{"type":"Polygon","coordinates":[[[-2.178346457037108,53.506762856943645],[-2.17830149443639,53.506380069117846],[-2.178679772029954,53.50582292052053],[-2.177879112663158,53.505427648307844],[-2.176776296474653,53.5054686157938],[-2.176560774525794,53.50519169711292],[-2.177692480184762,53.504954161976414],[-2.177087861452865,53.5044827964089],[-2.177154141907282,53.50422091410453],[-2.176881563427954,53.503932842361294],[-2.176106058951577,53.50348919920044],[-2.17544713636577,53.50261450650113],[-2.173721709251552,53.50292095064931],[-2.173651881145687,53.50278089168582],[-2.170843009217107,53.50313015528294],[-2.172639714479385,53.5023690942154],[-2.170757110840158,53.50168763122449],[-2.170600946467828,53.501807130933635],[-2.168497762609653,53.5010110981829],[-2.167243313089241,53.49984436958939],[-2.166864667614709,53.49975164322383],[-2.166332116496994,53.499217294736304],[-2.165725960765813,53.49889202606839],[-2.164315470926951,53.499484118093775],[-2.164002299293074,53.49927082872954],[-2.163605479566875,53.499341702178725],[-2.162096234033526,53.498246821357945],[-2.161839038131339,53.49830446617865],[-2.161952919365142,53.49792626081655],[-2.161624566638623,53.49737663883287],[-2.162218777206822,53.49705422150021],[-2.162884402998615,53.496933651843754],[-2.162880963172647,53.496773412410604],[-2.163385737479563,53.496723710375676],[-2.1632567502582,53.49613233658089],[-2.163603512339067,53.49529228725727],[-2.164047476182229,53.494745347337734],[-2.16405707049979,53.494180751787326],[-2.163887841588373,53.49366077508301],[-2.163664637584482,53.493555749119835],[-2.163924210877682,53.49295484977862],[-2.163055717323601,53.4928501458222],[-2.163259782370226,53.49214596107748],[-2.163955802928361,53.49138015114361],[-2.165685085515106,53.491439835652244],[-2.167679195458841,53.49188451038494],[-2.169818412941923,53.49127223521572],[-2.173919996051684,53.49129778848746],[-2.174894282215576,53.49147332381746],[-2.175949210875272,53.49144592804578],[-2.176834954696738,53.49173394235422],[-2.177323468255653,53.49208825855725],[-2.178039716033516,53.492165280326844],[-2.180866463665831,53.49133043833259],[-2.181653001649626,53.49087982342684],[-2.183280978855389,53.49092789311653],[-2.184508323152458,53.490696800307056],[-2.185287094523247,53.49095878216075],[-2.186416149040721,53.4906559148257],[-2.187730895786376,53.48974349872899],[-2.188823051491637,53.48930470736704],[-2.189819328460427,53.48955227453519],[-2.190208540323822,53.49043139752837],[-2.190735364663883,53.49059347965035],[-2.191700013569397,53.49018829523399],[-2.192142968751643,53.489196322804574],[-2.192419531304838,53.48900964954695],[-2.192935030018837,53.4890655610815],[-2.193497859229552,53.48989608010608],[-2.194015477555468,53.490001133749686],[-2.194236514681339,53.4899271778321],[-2.194866003502205,53.489162979825274],[-2.195939966343493,53.48868034122243],[-2.197087397487635,53.488813274769065],[-2.198423989380376,53.488402929571805],[-2.199687963266464,53.488278636578244],[-2.201194155285994,53.48967745934944],[-2.206606335828214,53.49221559477197],[-2.20966435091698,53.49492645547962],[-2.21141466253779,53.49557137796465],[-2.211815975030018,53.49651361356851],[-2.212100148870459,53.49674589123947],[-2.195999674516011,53.501921039091386],[-2.19155345555251,53.50353016255627],[-2.188252073784877,53.5049895662224],[-2.183504056401579,53.50766736279029],[-2.183737804524808,53.50702348733599],[-2.181895607036147,53.50704793815767],[-2.180750980666927,53.506681143362854],[-2.178346457037108,53.506762856943645]]]},"properties":{"year":null,"ward_code":"00BNGC","ward_name":"Newton Heath","total_population":12931.11,"pct_male":47.96,"pct_female":52.04,"chinese_ethnic_count":11.98,"pct_chinese_ethnic":0.09,"china_born_count":11.98,"pct_china_born":0.09,"total_hh":4856.72,"pct_owner_occ":32.6,"pct_social_rent":0.27,"pct_private_rent":null,"pct_no_car":66.45,"pct_overcrowd":0.63,"pct_no_bath_wc":4.7,"emp_rate":21.96,"unemployment_rate":null,"self_employment_rate":null,"interp_coverage":0.98,"interp_uncertainty":"low"}},{"type":"Feature","geometry":{"type":"Polygon","coordinates":[[[-2.183594295581913,53.507612450274834],[-2.189133557662978,53.50455841352872],[-2.193827558209933,53.502689725497866],[-2.195510053265275,53.504651789171206],[-2.200916833521831,53.50661465139057],[-2.201371122225995,53.50633187139466],[-2.201935784420592,53.50657248019484],[-2.202218608329627,53.50640206559127],[-2.204262393986892,53.50744686376061],[-2.207062814587099,53.50690722471314],[-2.207196146351152,53.50709940583398],[-2.206971751911263,53.50746101123387],[-2.20694615760823,53.50839585489787],[-2.208366611335173,53.50902875493311],[-2.20941684796655,53.50978109484234],[-2.207947155498156,53.50987804255317],[-2.207905771802764,53.51037528485916],[-2.207296501607479,53.51124541633449],[-2.203540631134259,53.51168781283982],[-2.204050508031877,53.51296413460589],[-2.204207004019425,53.51385484462936],[-2.203089571453885,53.51727936685189],[-2.202916100374611,53.51727347659432],[-2.202670851836899,53.5180244207019],[-2.200722870605325,53.51750554682448],[-2.198529534769904,53.51741651899502],[-2.196748954659758,53.51821859509982],[-2.196593250954327,53.51879130144639],[-2.196357261374009,53.51892285757495],[-2.194296959882882,53.51918521319521],[-2.192557751335478,53.51917005495614],[-2.19247180749931,53.51882329050732],[-2.19221971970007,53.51883717141428],[-2.191140988415778,53.51937905567448],[-2.190812606978396,53.51982619201016],[-2.187297727340313,53.51933852738441],[-2.187087485101114,53.51986636301568],[-2.187192016050973,53.51994793168405],[-2.186915577298987,53.52021352597136],[-2.185625127829203,53.520650635811],[-2.18518285284451,53.52028812841443],[-2.185354648290481,53.51948087305304],[-2.185058738294641,53.51874063117942],[-2.185934595514216,53.51802806864181],[-2.188110274693348,53.51721317995862],[-2.186549585015573,53.51651453275668],[-2.183794655566683,53.514925048233],[-2.1868562067598,53.51326558855101],[-2.187616840238464,53.51263436436452],[-2.188357615124616,53.51167761674438],[-2.18725678472491,53.51134593823058],[-2.185582399063152,53.509488794790336],[-2.185332281539626,53.50885999841258],[-2.185536202905468,53.50862064127062],[-2.183352832261317,53.50832655552378],[-2.183594295581913,53.507612450274834]]]},"properties":{"year":null,"ward_code":"00BNFY","ward_name":"Lightbowne","total_population":12786.38,"pct_male":47.94,"pct_female":52.06,"chinese_ethnic_count":17.94,"pct_chinese_ethnic":0.14,"china_born_count":17.94,"pct_china_born":0.14,"total_hh":4833.27,"pct_owner_occ":61.86,"pct_social_rent":0.62,"pct_private_rent":null,"pct_no_car":58.71,"pct_overcrowd":0.28,"pct_no_bath_wc":11.9,"emp_rate":23.42,"unemployment_rate":null,"self_employment_rate":null,"interp_coverage":1.0,"interp_uncertainty":"low"}},{"type":"Feature","geometry":{"type":"Polygon","coordinates":[[[-2.171999711309316,53.52775477664991],[-2.170169885229313,53.52771971709731],[-2.170164485043049,53.52683239464034],[-2.170504457753258,53.52393063010226],[-2.169269151064213,53.52360683881921],[-2.164774453075569,53.52014024351266],[-2.159136989975168,53.522152297364705],[-2.156127205026336,53.518754167521834],[-2.15537716045437,53.518184381034914],[-2.154754017636321,53.51803323072276],[-2.155326951159541,53.516830577037794],[-2.156230851038661,53.51580022119161],[-2.156406115760225,53.51629997745153],[-2.158189713771841,53.515362829710725],[-2.158443529786664,53.51505773565159],[-2.158332738996804,53.51491939756144],[-2.158843260362421,53.51470834083206],[-2.158654058503338,53.514521804155855],[-2.159373419956033,53.51445230279485],[-2.159689401712525,53.514268746199974],[-2.159668940403472,53.51408816121085],[-2.160362084361404,53.513944264475896],[-2.160184641869992,53.513629906035895],[-2.160786701059838,53.51333135259109],[-2.160362045685023,53.513064240515135],[-2.160700812991885,53.51292362460726],[-2.163254992430204,53.512938134251065],[-2.163860736270022,53.51310977102005],[-2.164388422561948,53.513571101387036],[-2.166986090734446,53.513368631638585],[-2.167662509429411,53.51353425042152],[-2.168202820083676,53.51335905387619],[-2.168625803263383,53.51354974630704],[-2.169234310835605,53.51334215149394],[-2.171398751164145,53.51311182293575],[-2.171675499007415,53.51291002993552],[-2.171492247410283,53.51269092695061],[-2.171569920949687,53.51255794927228],[-2.17259937069814,53.512389898328586],[-2.172937201598186,53.51203464578216],[-2.173190973028734,53.512093543215414],[-2.173270223085981,53.51234426811058],[-2.173478235500701,53.51227654582791],[-2.173289572959821,53.51189116718279],[-2.173662416986783,53.51088027050745],[-2.174050034784674,53.510603030055506],[-2.173552030224418,53.51038972242733],[-2.173889597438076,53.5100889558517],[-2.174298453503254,53.510052408277375],[-2.17397874478242,53.50976356141615],[-2.173520982191708,53.509824339826736],[-2.17392662898307,53.509465055555445],[-2.174510614786554,53.509622624666946],[-2.174301486413733,53.50895300794846],[-2.174828080344517,53.508677255424374],[-2.175246041742601,53.508108683524746],[-2.175604506705445,53.508048302305504],[-2.175560861821831,53.50766863180829],[-2.175786064860912,53.50743741484],[-2.176741868530358,53.50692899409384],[-2.177398474721713,53.50696885885808],[-2.177862284016336,53.506698128750934],[-2.180270295173025,53.50666024970705],[-2.181895607036147,53.50704793815767],[-2.183737804524808,53.50702348733599],[-2.183352832261317,53.50832655552378],[-2.185536202905468,53.50862064127062],[-2.185332281539626,53.50885999841258],[-2.185582399063152,53.509488794790336],[-2.18725678472491,53.51134593823058],[-2.188357615124616,53.51167761674438],[-2.187616840238464,53.51263436436452],[-2.1868562067598,53.51326558855101],[-2.183794655566683,53.514925048233],[-2.186549585015573,53.51651453275668],[-2.188110274693348,53.51721317995862],[-2.185934595514216,53.51802806864181],[-2.185058738294641,53.51874063117942],[-2.185354648290481,53.51948087305304],[-2.18518285284451,53.52028812841443],[-2.185625127829203,53.520650635811],[-2.183598637625627,53.521572550819016],[-2.184490095082514,53.522257655843276],[-2.184393589983979,53.52260823285806],[-2.182524427481929,53.522442135850625],[-2.182299253048054,53.52268994144903],[-2.181100684058216,53.523259713920496],[-2.181804634827572,53.524188102149296],[-2.181615997257301,53.52449848466048],[-2.181928531011146,53.52494181228188],[-2.179540964025821,53.52570775596772],[-2.177562012885176,53.5246742414861],[-2.176295249270279,53.52542131027956],[-2.175849700174108,53.52528629887978],[-2.175494129168968,53.52752859077332],[-2.172063404405998,53.527097641222916],[-2.171999711309316,53.52775477664991]]]},"properties":{"year":null,"ward_code":"00BNGB","ward_name":"Moston","total_population":13662.6,"pct_male":48.91,"pct_female":51.09,"chinese_ethnic_count":29.78,"pct_chinese_ethnic":0.22,"china_born_count":29.78,"pct_china_born":0.22,"total_hh":4747.9,"pct_owner_occ":54.12,"pct_social_rent":0.02,"pct_private_rent":null,"pct_no_car":48.11,"pct_overcrowd":0.65,"pct_no_bath_wc":1.19,"emp_rate":25.36,"unemployment_rate":null,"self_employment_rate":null,"interp_coverage":0.97,"interp_uncertainty":"low"}},{"type":"Feature","geometry":{"type":"Polygon","coordinates":[[[-2.206745637918746,53.534061702341724],[-2.208164459540178,53.53236296948063],[-2.211216760587062,53.53332835721791],[-2.212377771730781,53.533472919619186],[-2.213226562737727,53.532471732194274],[-2.214335251713403,53.53066140038511],[-2.214519514540763,53.52980913814843],[-2.214178888087802,53.52929178873299],[-2.214441327916633,53.52861382233535],[-2.214397483046732,53.527772646096714],[-2.214626400370617,53.527362136908565],[-2.215014926292093,53.52756732466242],[-2.221554845405551,53.52732083291309],[-2.222147775370257,53.52703210326049],[-2.22253822735834,53.52732715031785],[-2.222706233496434,53.52799002051795],[-2.226404319307712,53.526733674849545],[-2.226848911152765,53.52692242665826],[-2.227188629622928,53.525310334948244],[-2.227004148809321,53.52483570765093],[-2.23042533395244,53.52482859483557],[-2.230548534986105,53.52459915632295],[-2.230463968699273,53.52430354542067],[-2.230659840455638,53.524003177701815],[-2.230660320386013,53.522270944274524],[-2.232145728543433,53.522910734406075],[-2.232822383511912,53.52278638590289],[-2.233610196929613,53.522306500554066],[-2.235081289944392,53.52273786428516],[-2.235438437253354,53.52322057009105],[-2.235889379881708,53.52345085086315],[-2.237018039101569,53.52349159047369],[-2.239460267178798,53.52326200989965],[-2.238761402849569,53.52454510018291],[-2.239386285698591,53.524600583579634],[-2.238571195533766,53.52559010090409],[-2.238195997560807,53.526432942959346],[-2.236845938758717,53.5275313675203],[-2.242254988715206,53.53300708627036],[-2.243027570050381,53.534132715421954],[-2.242661521599226,53.53500617370684],[-2.241676426598489,53.53530844517664],[-2.241481129658791,53.53570516850238],[-2.240716039521765,53.53614713782464],[-2.240703457266941,53.53667129954605],[-2.240320715542492,53.537275131553585],[-2.238751465477671,53.53701396422719],[-2.237892483431468,53.5378316023015],[-2.237010166199991,53.5382758059774],[-2.236939165620268,53.5388169356508],[-2.236764903510132,53.53893778110473],[-2.23553502353754,53.53891521404804],[-2.235112272870984,53.539209012993005],[-2.234098627388352,53.53923712489449],[-2.233918300397716,53.539372299630124],[-2.233773474628582,53.5399576778131],[-2.233525592185809,53.54015505648377],[-2.230735171044502,53.54036075050387],[-2.229458182085996,53.54079100691574],[-2.228841886863183,53.540707916516126],[-2.227761468304205,53.54156471869499],[-2.224453360049819,53.5419897844453],[-2.221865546627283,53.54264543024765],[-2.220825781458172,53.542654379598886],[-2.219757493379333,53.543256888309905],[-2.219502383929364,53.543805644369996],[-2.218862895117992,53.54389502042112],[-2.217816446781411,53.54343655428643],[-2.217656649411554,53.543171694435586],[-2.217731033045629,53.542415692188385],[-2.216950091105939,53.542226671450535],[-2.215059360019076,53.54227503399397],[-2.214050235593245,53.542000733346114],[-2.21300290712973,53.54200541278224],[-2.210866039012561,53.54073004856301],[-2.210555804766577,53.53998175165713],[-2.209645808783893,53.53961399245036],[-2.208531041815009,53.538455603345966],[-2.207468746251652,53.53846559888888],[-2.207037258101929,53.538167196422464],[-2.205604539364523,53.53675737787677],[-2.206879397305414,53.53577094647805],[-2.206953883260154,53.53528713331812],[-2.206745637918746,53.534061702341724]]]},"properties":{"year":null,"ward_code":"00BNFF","ward_name":"Blackley","total_population":12725.9,"pct_male":45.45,"pct_female":54.55,"chinese_ethnic_count":12.55,"pct_chinese_ethnic":0.1,"china_born_count":12.55,"pct_china_born":0.1,"total_hh":4967.77,"pct_owner_occ":27.58,"pct_social_rent":0.17,"pct_private_rent":null,"pct_no_car":64.66,"pct_overcrowd":0.73,"pct_no_bath_wc":0.79,"emp_rate":21.47,"unemployment_rate":null,"self_employment_rate":null,"interp_coverage":0.99,"interp_uncertainty":"low"}}]}